{"type":"FeatureCollection","features":[{"type":"Feature","id":11,"geometry":{"type":"Polygon","coordinates":[[[-111.95941729873867,40.33282646373533],[-111.94868222463194,40.332832352471875],[-111.9443862665597,40.332834432729086],[-111.94440089611099,40.31840536343703],[-111.93023059710623,40.318400286409279],[-111.93018514121349,40.311165919673087],[-111.92550505991447,40.311179167510474],[-111.92546014316063,40.30395043552565],[-111.92053928083476,40.30394244393672],[-111.92053381183861,40.303942434802728],[-111.92053880403175,40.303819787005587],[-111.9205118150316,40.296752680988043],[-111.92028134502674,40.296752686327203],[-111.9155676719533,40.296752697555156],[-111.91553832366996,40.293160274220583],[-111.91553821381787,40.293146820755922],[-111.91553332089127,40.293146820149261],[-111.91053725483633,40.293145716040058],[-111.90580774535778,40.293144474904551],[-111.90576763510759,40.293144463839134],[-111.90576557123316,40.289536805644993],[-111.9057655710304,40.289536771421083],[-111.90577426570717,40.28305121030423],[-111.90577534027184,40.282323556150125],[-111.90578386644007,40.275809842092961],[-111.90578326363773,40.275101581354754],[-111.90086097293548,40.275100185297497],[-111.90086522251545,40.271492556336554],[-111.90028258075435,40.271491063236688],[-111.89555272239103,40.271490373251716],[-111.88609357611111,40.271491517578085],[-111.88609868594725,40.267877944241405],[-111.88610070543518,40.264272067814275],[-111.8861039217195,40.26069877544343],[-111.88610364568429,40.260651038089094],[-111.87974794238799,40.260670868782874],[-111.87959984002337,40.261953795568061],[-111.87961424442194,40.264261436345301],[-111.87608903031035,40.264273799371821],[-111.87607027833728,40.267839356086874],[-111.86710962603927,40.267898883776724],[-111.86650003613306,40.267999283168287],[-111.85581861506213,40.268225184192872],[-111.86488172474124,40.282435232239315],[-111.86609888700612,40.286606344424712],[-111.86981310582912,40.289594744627877],[-111.86981458475381,40.289595934201103],[-111.88429039603662,40.311439008774919],[-111.88429203702076,40.311441483739564],[-111.88391530422881,40.311811620644662],[-111.88432868956899,40.311977230287106],[-111.88507402499084,40.313180234444289],[-111.8856492399505,40.31362302884817],[-111.88608515417923,40.314244037183215],[-111.88608501819685,40.313925516713702],[-111.88608610514423,40.313926529043087],[-111.88664502979483,40.314447081243415],[-111.88751867207613,40.315580706856267],[-111.88759235459959,40.315676313842012],[-111.88784759416831,40.316007499958154],[-111.88799454999773,40.31627043895687],[-111.88868042017259,40.317497588550651],[-111.88927546922001,40.318080329924193],[-111.89143467180263,40.319456164433227],[-111.89149739621782,40.31950417985248],[-111.89287035806818,40.320555181408089],[-111.8930552142795,40.320696684872281],[-111.89403570896343,40.32164029310686],[-111.89547356496253,40.322903358256873],[-111.89588788198995,40.323302749631502],[-111.89601047445687,40.323570501574686],[-111.89609883727498,40.324199017635067],[-111.89614365963858,40.325205824995578],[-111.89588082199097,40.326351621430447],[-111.89592731197372,40.326483060358484],[-111.89635571665124,40.327066155989307],[-111.89646597978975,40.327681040445015],[-111.89781872046214,40.329004242308983],[-111.89798909704346,40.329390385995218],[-111.89786728878624,40.329801888425365],[-111.8989108886951,40.331308855124277],[-111.89901343594531,40.331440272419599],[-111.89999082176656,40.332041209569212],[-111.90021686159238,40.332200580277032],[-111.90055281181243,40.332437443665775],[-111.90112587660882,40.332841478845815],[-111.9017898167188,40.333126407865542],[-111.90251922468943,40.333411110359485],[-111.9058495513427,40.334945802165265],[-111.9058600028759,40.334951469587978],[-111.90691389578326,40.33552304641573],[-111.90814833479263,40.335613921273229],[-111.90814889760833,40.335613963438938],[-111.90933517841097,40.336030165057693],[-111.90990465427267,40.336389149600478],[-111.91162805325557,40.337475501190269],[-111.91225976985527,40.338203311977459],[-111.91225975393695,40.338203404798818],[-111.91220080729066,40.338540144188897],[-111.91213452361247,40.338702856636509],[-111.91203454650277,40.33955316525067],[-111.9119941615203,40.339896636023688],[-111.91199393809171,40.339897060108584],[-111.91199389270521,40.339897145828687],[-111.91136721901985,40.341087150366882],[-111.91093616144811,40.342416636040227],[-111.91015677497973,40.343817626581341],[-111.91015461831441,40.343821504161994],[-111.91012910623215,40.34386736286509],[-111.90974120806263,40.344297956877128],[-111.90944347237705,40.344628458229835],[-111.90841013182927,40.345552568381784],[-111.90840899026449,40.345553589182359],[-111.90788890707729,40.346038146747397],[-111.9074723859508,40.346426210356285],[-111.90731066448667,40.346603830709526],[-111.90673897248304,40.347231717933973],[-111.90571250033156,40.347931694428809],[-111.90571040879416,40.34793312017981],[-111.90571027631577,40.347933210702593],[-111.90494017439337,40.348458180418277],[-111.90450933186419,40.348943106657323],[-111.90355054048266,40.350022226743832],[-111.90271523539231,40.351439370425268],[-111.90271584265348,40.351439342215201],[-111.9027541392463,40.35143761437471],[-111.90298292548829,40.351427292821846],[-111.90294219852785,40.351671408155084],[-111.90287119574009,40.351953030899416],[-111.90275504883297,40.352185393408533],[-111.90243400750171,40.352583001588641],[-111.90185172609226,40.353253790418407],[-111.90125595484166,40.353920501184675],[-111.90099346983214,40.354211013109307],[-111.90078345626549,40.354423453744914],[-111.90053260202315,40.354631912631966],[-111.90010600199541,40.354931048812084],[-111.8999335894418,40.355054654549662],[-111.89964916587654,40.355276442115766],[-111.89940217618087,40.355456918098952],[-111.89908634037174,40.355676750022404],[-111.8988611919484,40.355833820421253],[-111.89873348387425,40.355932393789722],[-111.89354642449396,40.359187681800847],[-111.89151641461763,40.359689819597072],[-111.88964987256581,40.360151404854442],[-111.88853528321141,40.360327541376904],[-111.88732111297891,40.360663730286205],[-111.88734376244773,40.360543897287691],[-111.88545175675139,40.360474317056479],[-111.88457004034987,40.360264814171842],[-111.88301074640577,40.360091843585174],[-111.88227329691144,40.360010016032348],[-111.88142449440623,40.360069576064824],[-111.87830990147893,40.359871409931429],[-111.87621127032725,40.360154236372907],[-111.87337075454541,40.360201258593143],[-111.87273595784076,40.361094764718636],[-111.87133285867705,40.361018932087973],[-111.87133353443595,40.361143662851326],[-111.86823146908488,40.361025996111728],[-111.8681728101789,40.360460856063142],[-111.86100089487564,40.360400894673035],[-111.86099809152182,40.360400872706983],[-111.86099199949746,40.362129747652332],[-111.86099167951842,40.362952998920839],[-111.86098323616801,40.363703402899318],[-111.86097631436627,40.364182544180061],[-111.86097210565767,40.364489933575861],[-111.86096809534976,40.364763521942642],[-111.86096694732724,40.364845637995188],[-111.86096661998805,40.364913699991249],[-111.86096512405324,40.365020033065527],[-111.86102242307268,40.36502049381432],[-111.86470345196422,40.365009071877815],[-111.86517545600137,40.365007598789553],[-111.86716557808558,40.3650013668192],[-111.86716557871874,40.365001484798846],[-111.86716052738615,40.366726591819642],[-111.86715725282323,40.367843992841969],[-111.86955164120825,40.36783626410211],[-111.86954702403764,40.366940507688518],[-111.87116209694359,40.36693936427028],[-111.87239430939258,40.366936514815549],[-111.87239431147599,40.366936897573638],[-111.87345990204072,40.366934083758387],[-111.87344924353336,40.364981469314991],[-111.87672951357096,40.364970948004107],[-111.87671995675484,40.366576884966783],[-111.87688399023497,40.366577151652614],[-111.87688221151758,40.366822385367954],[-111.8815754166027,40.366797737396588],[-111.8815869598553,40.367539906038608],[-111.88160944977523,40.368677986796982],[-111.88162198103066,40.368772012348337],[-111.88385870491418,40.36875015195573],[-111.88385962767403,40.36874861426535],[-111.88385470328812,40.368389098162105],[-111.8840883587179,40.368390079959518],[-111.88417844827383,40.368390455888701],[-111.88417640307556,40.368683186675696],[-111.88424603905155,40.368830321399123],[-111.88465583784485,40.368828972344005],[-111.88465091721143,40.369386890118172],[-111.8846460927065,40.369930295740211],[-111.88464511835616,40.370040146071872],[-111.88493526820513,40.370042241759592],[-111.88493826883281,40.370566519323255],[-111.88649715891157,40.370576710661247],[-111.88651400168618,40.372253756658317],[-111.88651457655835,40.372586843447635],[-111.88651371619702,40.373072941560544],[-111.88651255777542,40.373398121125369],[-111.88651018375627,40.374969153889779],[-111.88651026164153,40.37521157109709],[-111.88650610450701,40.376060835199809],[-111.8863941507816,40.376062125567046],[-111.8863938599027,40.376062123826223],[-111.88639386032494,40.376062198576363],[-111.8863979860195,40.377014823588645],[-111.88660027759339,40.377013253552732],[-111.88763917230078,40.377010717216571],[-111.88763995669866,40.37792862599585],[-111.89139935003077,40.377916107171075],[-111.89140373854353,40.378841540139419],[-111.89696677968662,40.378641613004888],[-111.89698035553107,40.376798880752965],[-111.89699365463363,40.374993607838618],[-111.89699602035917,40.374993598907395],[-111.9017588116505,40.374975622230743],[-111.90175875867521,40.374971213869259],[-111.90173684459926,40.373141443124524],[-111.90164791248625,40.372596618968437],[-111.90060279469391,40.366193285953734],[-111.90054846863008,40.365860404034308],[-111.90054470232097,40.365837326725241],[-111.90375288551817,40.365797126742549],[-111.90641884520092,40.368126053619328],[-111.90687034818569,40.368913880441617],[-111.90584409926986,40.369326983603266],[-111.90884325375578,40.37137091903584],[-111.90877361689303,40.37218200330696],[-111.90773977133654,40.372998282198616],[-111.90602779690052,40.374349919618751],[-111.90602059325565,40.374355606839735],[-111.90507297609281,40.37516729929272],[-111.90511082842488,40.375513852634455],[-111.90513495104494,40.37551376907296],[-111.90518475416188,40.375969658746911],[-111.90772458466438,40.376737577444388],[-111.90936264724522,40.37741055106482],[-111.90928559070784,40.378127074923398],[-111.90932030232007,40.378772282645642],[-111.90978125838842,40.378717139197796],[-111.9138609805165,40.379435477807014],[-111.91413976539816,40.380325057280892],[-111.91381482123032,40.380323431703651],[-111.91356245381509,40.381229056192019],[-111.91286363223777,40.381814717212514],[-111.91285866444248,40.381818777632112],[-111.91284492373666,40.381818713556378],[-111.91136461406515,40.382049151840533],[-111.91091681806918,40.382270588859789],[-111.91091510679246,40.382270579561336],[-111.91073258114496,40.382360839555993],[-111.91011117348147,40.382707635936818],[-111.90958640303056,40.383084757588144],[-111.90931230192786,40.383306187889026],[-111.90931100210601,40.383307238056986],[-111.9092990512595,40.383307173604408],[-111.90851533121457,40.383940196666174],[-111.90854630623923,40.383941241271529],[-111.9085184859028,40.383963777371243],[-111.90862107708027,40.38396243013382],[-111.90858101340073,40.383992735432848],[-111.90811789551451,40.384343048611356],[-111.90785676556931,40.384608475790372],[-111.90776393217214,40.384654449136477],[-111.90764887818263,40.384742955033786],[-111.90758940902272,40.384788702078659],[-111.9074386058856,40.384970899436965],[-111.90718145391021,40.385326503652223],[-111.90682088444817,40.385646009937837],[-111.90660532921665,40.385806234698045],[-111.90633782671472,40.38591367233694],[-111.90608555551226,40.386015540190684],[-111.90581133980876,40.3860482440762],[-111.90526583627617,40.38600146232973],[-111.90503290794068,40.385901812332705],[-111.90481129652237,40.385730353310286],[-111.90425957195139,40.385530777744123],[-111.90368917067191,40.385457023720313],[-111.90337261298465,40.385421246288601],[-111.90282646774872,40.385441142597607],[-111.90251448068565,40.385496281662363],[-111.90235482150622,40.385870571444144],[-111.90231702835649,40.386076296413435],[-111.90232128328529,40.386315698557901],[-111.90242124505099,40.386527622318816],[-111.90265612900807,40.386692263871495],[-111.90287906244914,40.386736639729463],[-111.904492783029,40.386829131633682],[-111.90469983037895,40.386827048330382],[-111.90488635537967,40.386789273948303],[-111.90495789763678,40.386682977582609],[-111.90506183308445,40.386680206752423],[-111.90536981192808,40.386702956689781],[-111.90543658179985,40.386733104032508],[-111.90560071294152,40.386894953423614],[-111.90569832873328,40.38705719991006],[-111.90573672978221,40.387146167578322],[-111.9056440685591,40.38769144397375],[-111.90564474257759,40.387691099401501],[-111.90564460800039,40.387691444804894],[-111.90564377501578,40.387693583058912],[-111.90609093050178,40.389360322443999],[-111.90586334375455,40.390859769224448],[-111.90513826348686,40.391321552313158],[-111.90743523111385,40.391313603394977],[-111.90743525097098,40.391313575406727],[-111.90754029958075,40.391313208576825],[-111.9076874169416,40.392018613887338],[-111.90768669696824,40.392019158567813],[-111.90768708232598,40.392020771130085],[-111.90772629276391,40.392478915995639],[-111.90864737382387,40.39249598661732],[-111.90957470726838,40.392455368812364],[-111.90957474259358,40.392455366887468],[-111.91161219112645,40.392366090159697],[-111.91164848246878,40.392342505891669],[-111.91165015294341,40.392342152375214],[-111.91316727488611,40.392021152000737],[-111.91673606769878,40.391263294983972],[-111.91709772964249,40.391261014427251],[-111.9170986925928,40.391264400917933],[-111.91757047071167,40.392923381227135],[-111.91805355136128,40.394622020256428],[-111.91867428762521,40.396805733589765],[-111.91838453727273,40.397051593571348],[-111.91832392198208,40.397096001745062],[-111.91828908009933,40.397124721775398],[-111.9182798260161,40.397268785826256],[-111.91789455360538,40.397720527208989],[-111.91737383038097,40.398194196896803],[-111.91685932230924,40.398921619148993],[-111.91627830623747,40.399477708449723],[-111.91570223865034,40.400080242554694],[-111.91537257991881,40.400456716642033],[-111.9152575879411,40.400768090816719],[-111.91523612269292,40.401082706575941],[-111.9152558004287,40.401243481947901],[-111.91541379724869,40.401854130092374],[-111.91553304631995,40.402243306856178],[-111.91565530059985,40.402357250565856],[-111.91606375173937,40.402634596415275],[-111.91613918817067,40.402737983382067],[-111.91652838140064,40.403690941005287],[-111.91669374283713,40.403972723358891],[-111.9168207420734,40.404097371605367],[-111.9171965893769,40.40439270040531],[-111.91753636738372,40.404906190675113],[-111.91811272455263,40.405876346134235],[-111.91884984388588,40.407135442162172],[-111.9190869792662,40.407681462991683],[-111.91935772515697,40.408370334993627],[-111.91982264340091,40.409458834442191],[-111.91989104544521,40.409515842703719],[-111.92225418124205,40.409503171636494],[-111.92225229850413,40.409496494988787],[-111.92383428794646,40.409490776326606],[-111.92383482492512,40.409490161965344],[-111.92591358938883,40.40948261562265],[-111.92594293736302,40.4131194686058],[-111.92332832051633,40.413135274406152],[-111.92378443439142,40.414727577425673],[-111.92381951549247,40.414721734200533],[-111.92343752133418,40.413381569239625],[-111.92664894676116,40.413362974160329],[-111.92651463451303,40.415534969428073],[-111.9271750638415,40.416737366133859],[-111.92721299128559,40.416741135426406],[-111.92723305287517,40.416777850303227],[-111.94153487275932,40.416702986901285],[-111.94153529403539,40.41669888663246],[-111.94491329738791,40.416690863010842],[-111.94495714227787,40.409404996295564],[-111.94496074962173,40.405777347358416],[-111.94497414289086,40.39843386623064],[-111.95462666676424,40.398486237405159],[-111.95469386199343,40.402033351645613],[-111.9639775730695,40.402179825881497],[-111.96659597495746,40.402193798777418],[-111.96877803839132,40.401791292333002],[-111.97834119657708,40.400099244039303],[-111.97835948334011,40.398644496412295],[-111.97839974870783,40.394969714129495],[-111.97360719756219,40.394909561218007],[-111.96400836968284,40.394790787844208],[-111.95455179536545,40.394779172727397],[-111.95448171529844,40.391072440434691],[-111.95447660605841,40.384114834208312],[-111.95449537163312,40.384111716291059],[-111.95449624839431,40.383905486763474],[-111.95449674154501,40.383687964916682],[-111.95535046323243,40.383550955275368],[-111.95694037929321,40.381725871101523],[-111.95691630271757,40.381640089015491],[-111.95701894845756,40.381622855347672],[-111.9611424439781,40.376905784060448],[-111.96114307809577,40.376906390382018],[-111.96114294227917,40.376703872083127],[-111.96129143427684,40.376705212923724],[-111.9612860938704,40.376006879154268],[-111.96400616017378,40.372847057645423],[-111.96400406206146,40.369391766738502],[-111.96193865283728,40.369376756251675],[-111.96075060264549,40.368609150693324],[-111.96030706601228,40.368430686558547],[-111.96029173811378,40.366146373337408],[-111.96028758416476,40.366146732827566],[-111.95933695724766,40.366139933560206],[-111.95931044429192,40.36219285796264],[-111.95451500515694,40.362158452595551],[-111.95291545493374,40.362161201829082],[-111.95291550591341,40.36199869139314],[-111.95291551927441,40.361980078059482],[-111.95269208992013,40.361980607360259],[-111.95128775725017,40.361983301586896],[-111.94998596430996,40.361986401245154],[-111.94504414411723,40.361994627268921],[-111.94503148992632,40.358361588634693],[-111.94503188416569,40.353045821566042],[-111.94510934348918,40.353033478953499],[-111.94509591481773,40.351053656434658],[-111.94507234167655,40.347431213304176],[-111.96408814324064,40.347533207843178],[-111.96413223009367,40.343876964806668],[-111.95936820234218,40.343851190126898],[-111.95936606366062,40.34384996736479],[-111.95941729873867,40.33282646373533]],[[-111.88900509636362,40.365098555428354],[-111.8890255702659,40.365939009125192],[-111.88902127364061,40.366057423941776],[-111.88666121711411,40.366057715188049],[-111.88666936825366,40.365103306958964],[-111.88738072264782,40.365098800029656],[-111.88900509636362,40.365098555428354]],[[-111.88482596626281,40.365108118224839],[-111.88649485720838,40.365089146081452],[-111.88649182564947,40.366918768844812],[-111.88409343582835,40.366941038921297],[-111.88408965233619,40.366293539971196],[-111.88408812273461,40.366031985876042],[-111.88483284892665,40.366023613949842],[-111.88481850114992,40.365114976727078],[-111.88481846776135,40.365108203243899],[-111.88482596626281,40.365108118224839]],[[-111.88664627106287,40.367807647296566],[-111.88907383516272,40.367799424427012],[-111.88908000666274,40.36873573142767],[-111.88902425149128,40.368735480120144],[-111.88902300855682,40.368705540338638],[-111.88849609585549,40.368707295636078],[-111.88849657908091,40.368733087875292],[-111.88741270103584,40.368728188134654],[-111.88741260070508,40.368710886598272],[-111.88741227678362,40.368653269412484],[-111.88663902611522,40.368655828582213],[-111.88664627106287,40.367807647296566]]]},"properties":{"OBJECTID":11,"DBO.CityBoundary.AREA":0,"PERIMETER":0,"ACRES":16411.00247567,"RuleID":1,"Override":null,"RuleID_1":1,"Override_1":null,"SqMiles":25.642191369999999,"FACILITYID":null,"created_user":"BRIANG","created_date":1725994835000,"last_edited_user":"BGIBSON","last_edited_date":1780007387000,"GlobalID":"{405D5960-C4D3-4839-B39E-9848238DA5E1}","Shape.STArea()":714863267.84002399,"Shape.STLength()":241075.54896968047}}]}