{"type":"FeatureCollection","features":[{"type":"Feature","id":3,"geometry":{"type":"Point","coordinates":[-111.86425462332834,40.361320036410497]},"properties":{"GlobalID":"{75C2C91F-A627-45B9-89F2-8FA04DDDC6AF}","created_user":null,"created_date":null,"last_edited_user":null,"last_edited_date":null,"OBJECTID":3,"PARKID":14,"TYPE":"Public Park","NAME":"Shoreline Park","COMMONNAME":"Loch Lomond Pond","ADDRESS":"2182 E LAKEVIEW DR","USE_":"OpenSpace","STATUS":"Constructed","RESERVABLE":"No","PATH":"Yes","BATHROOM":"No","DRINKINGFNTN":"No","PAVILION":0,"TABLES":0,"BBQGRILLS":0,"FIREPIT":0,"BENCHES":0,"PLAYGRNDTOT":"No","PLAYGRNDSCHL":"No","SWINGSET":"No","BBALLCOURT":"No","TENNISCOURT":"No","VBALLCOURT":"No","HORSESHOES":"No","ADDAMENITIES":"Fishing","OWNEDBY":"City","MAINTBY":"City","AREA_SQFT":736650.17763517005,"AREA_ACRES":16.911228749999999,"LASTUPDATE":null,"LASTEDITOR":null,"NOTES":null,"FACILITYID":"624","PARKINGTYPE":"None","PARKINGNUMSTALLS":0,"BOATING":null,"ORIG_FID":67,"HASPAVILION":"No","HASTABLES":"No","HASFIREPIT":"No","HASBENCHES":"No","BASEBALL":null,"FISHING":null,"URL":null,"PICURL":null,"HASBBQ":null,"TRAILHEAD":null}},{"type":"Feature","id":4,"geometry":{"type":"Point","coordinates":[-111.91175286044093,40.323716058357924]},"properties":{"GlobalID":"{BDA5AFF7-1CA4-4398-A71A-33F1658C6AA3}","created_user":null,"created_date":null,"last_edited_user":null,"last_edited_date":null,"OBJECTID":4,"PARKID":10,"TYPE":"RegionalPark","NAME":"Israel Canyon Trailhead","COMMONNAME":"Jacobs Ranch Trailhead","ADDRESS":"260 W WEATHERBY DR","USE_":"Recreation","STATUS":"Constructed","RESERVABLE":"No","PATH":"Yes","BATHROOM":"No","DRINKINGFNTN":"No","PAVILION":0,"TABLES":0,"BBQGRILLS":0,"FIREPIT":0,"BENCHES":3,"PLAYGRNDTOT":"No","PLAYGRNDSCHL":"No","SWINGSET":"No","BBALLCOURT":"No","TENNISCOURT":"No","VBALLCOURT":"No","HORSESHOES":"No","ADDAMENITIES":" ","OWNEDBY":"City","MAINTBY":"City","AREA_SQFT":358954.77842716,"AREA_ACRES":8.2405007900000005,"LASTUPDATE":null,"LASTEDITOR":null,"NOTES":null,"FACILITYID":"61","PARKINGTYPE":"Lot","PARKINGNUMSTALLS":35,"BOATING":"No","ORIG_FID":106,"HASPAVILION":"No","HASTABLES":"No","HASFIREPIT":"No","HASBENCHES":"Yes","BASEBALL":null,"FISHING":null,"URL":"http://www.saratogaspringscity.com/Facilities/Facility/Details/Jacobs-Ranch-TrailHead-Park-8","PICURL":null,"HASBBQ":null,"TRAILHEAD":null}},{"type":"Feature","id":9,"geometry":{"type":"Point","coordinates":[-111.87855266677826,40.289992308135993]},"properties":{"GlobalID":"{A6165911-29D1-4CC2-BF29-C3285AEB85D0}","created_user":null,"created_date":null,"last_edited_user":null,"last_edited_date":null,"OBJECTID":9,"PARKID":2,"TYPE":"Public Park","NAME":"Reid & Ursula Wayman Park","COMMONNAME":"Corner Park","ADDRESS":"12 W HARBOR PKWY","USE_":"Recreation","STATUS":"Constructed","RESERVABLE":"No","PATH":"Yes","BATHROOM":"No","DRINKINGFNTN":"Yes","PAVILION":1,"TABLES":14,"BBQGRILLS":1,"FIREPIT":0,"BENCHES":2,"PLAYGRNDTOT":"No","PLAYGRNDSCHL":"No","SWINGSET":"No","BBALLCOURT":"Yes","TENNISCOURT":"No","VBALLCOURT":"No","HORSESHOES":"Yes","ADDAMENITIES":" ","OWNEDBY":"City","MAINTBY":"City","AREA_SQFT":53181.623321610001,"AREA_ACRES":1.2208869600000001,"LASTUPDATE":null,"LASTEDITOR":null,"NOTES":null,"FACILITYID":"631","PARKINGTYPE":"Lot","PARKINGNUMSTALLS":0,"BOATING":null,"ORIG_FID":116,"HASPAVILION":"Yes","HASTABLES":"Yes","HASFIREPIT":"No","HASBENCHES":"Yes","BASEBALL":null,"FISHING":null,"URL":"http://www.saratogaspringscity.com/Facilities/Facility/Details/Reid-Ursula-Wayman-Park-18","PICURL":null,"HASBBQ":null,"TRAILHEAD":null}},{"type":"Feature","id":24,"geometry":{"type":"Point","coordinates":[-111.93619819381858,40.375599608767743]},"properties":{"GlobalID":"{6CED4CF6-6D8C-4523-B29B-DB8F511BE437}","created_user":null,"created_date":null,"last_edited_user":null,"last_edited_date":null,"OBJECTID":24,"PARKID":18,"TYPE":"RegionalPark","NAME":"Sunrise Park","COMMONNAME":"Sunrise Park","ADDRESS":"749 N 800 WEST","USE_":"Recreation","STATUS":"Constructed","RESERVABLE":"Yes","PATH":"Yes","BATHROOM":"Yes","DRINKINGFNTN":"Yes","PAVILION":2,"TABLES":8,"BBQGRILLS":2,"FIREPIT":0,"BENCHES":2,"PLAYGRNDTOT":"No","PLAYGRNDSCHL":"Yes","SWINGSET":"Yes","BBALLCOURT":"No","TENNISCOURT":"No","VBALLCOURT":"No","HORSESHOES":"No","ADDAMENITIES":"Sledding","OWNEDBY":"City","MAINTBY":"City","AREA_SQFT":224557.19176377999,"AREA_ACRES":5.1551444000000002,"LASTUPDATE":null,"LASTEDITOR":null,"NOTES":null,"FACILITYID":"623","PARKINGTYPE":"Street-Marked","PARKINGNUMSTALLS":71,"BOATING":"No","ORIG_FID":176,"HASPAVILION":"Yes","HASTABLES":"Yes","HASFIREPIT":"No","HASBENCHES":"Yes","BASEBALL":null,"FISHING":null,"URL":"http://www.saratogaspringscity.com/Facilities/Facility/Details/Sunrise-Park-21","PICURL":null,"HASBBQ":null,"TRAILHEAD":null}},{"type":"Feature","id":33,"geometry":{"type":"Point","coordinates":[-111.88287715085595,40.289891678497682]},"properties":{"GlobalID":"{4B449049-90E6-4AB6-A771-CD9B86DD8064}","created_user":null,"created_date":null,"last_edited_user":null,"last_edited_date":null,"OBJECTID":33,"PARKID":3,"TYPE":"Public Park","NAME":"Panorama Park","COMMONNAME":"Panorama Park","ADDRESS":"3969 S PANORAMA DR","USE_":"Recreation","STATUS":"Constructed","RESERVABLE":"No","PATH":"No","BATHROOM":"No","DRINKINGFNTN":"Yes","PAVILION":0,"TABLES":1,"BBQGRILLS":1,"FIREPIT":0,"BENCHES":2,"PLAYGRNDTOT":"Yes","PLAYGRNDSCHL":"No","SWINGSET":"No","BBALLCOURT":"No","TENNISCOURT":"No","VBALLCOURT":"No","HORSESHOES":"No","ADDAMENITIES":" ","OWNEDBY":"City","MAINTBY":"City","AREA_SQFT":29186.755589920002,"AREA_ACRES":0.67003838999999998,"LASTUPDATE":null,"LASTEDITOR":null,"NOTES":null,"FACILITYID":"698","PARKINGTYPE":"None","PARKINGNUMSTALLS":0,"BOATING":null,"ORIG_FID":43,"HASPAVILION":"No","HASTABLES":"Yes","HASFIREPIT":"No","HASBENCHES":"Yes","BASEBALL":null,"FISHING":null,"URL":"http://www.saratogaspringscity.com/Facilities/Facility/Details/Panarama-Park-15","PICURL":null,"HASBBQ":null,"TRAILHEAD":null}},{"type":"Feature","id":36,"geometry":{"type":"Point","coordinates":[-111.92846292364536,40.403300040972134]},"properties":{"GlobalID":"{14BD4D95-83D2-4113-A4B2-1BE4D4E62DBC}","created_user":null,"created_date":null,"last_edited_user":null,"last_edited_date":null,"OBJECTID":36,"PARKID":66,"TYPE":"Public Park","NAME":"Nature Park","COMMONNAME":" ","ADDRESS":"403 W HARVEST MOON DR","USE_":"NativeOpen","STATUS":"Constructed","RESERVABLE":null,"PATH":null,"BATHROOM":null,"DRINKINGFNTN":null,"PAVILION":null,"TABLES":null,"BBQGRILLS":null,"FIREPIT":null,"BENCHES":null,"PLAYGRNDTOT":null,"PLAYGRNDSCHL":null,"SWINGSET":null,"BBALLCOURT":null,"TENNISCOURT":null,"VBALLCOURT":null,"HORSESHOES":null,"ADDAMENITIES":" ","OWNEDBY":"City","MAINTBY":"City","AREA_SQFT":288311.55587598,"AREA_ACRES":6.6187490599999999,"LASTUPDATE":null,"LASTEDITOR":null,"NOTES":null,"FACILITYID":"621","PARKINGTYPE":"None","PARKINGNUMSTALLS":0,"BOATING":null,"ORIG_FID":184,"HASPAVILION":null,"HASTABLES":null,"HASFIREPIT":null,"HASBENCHES":null,"BASEBALL":null,"FISHING":null,"URL":"http://www.saratogaspringscity.com/Facilities/Facility/Details/Nature-Park-53","PICURL":null,"HASBBQ":null,"TRAILHEAD":null}},{"type":"Feature","id":37,"geometry":{"type":"Point","coordinates":[-111.92670054600227,40.339514337638015]},"properties":{"GlobalID":"{B28CD142-E0A0-43C0-8011-1B936F9B2310}","created_user":null,"created_date":null,"last_edited_user":null,"last_edited_date":null,"OBJECTID":37,"PARKID":12,"TYPE":"Public Park","NAME":"Valley View Park","COMMONNAME":"Pondside","ADDRESS":"1237 S PONDSIDE DR","USE_":"Detention","STATUS":"Constructed","RESERVABLE":"No","PATH":"Yes","BATHROOM":"No","DRINKINGFNTN":"No","PAVILION":0,"TABLES":0,"BBQGRILLS":0,"FIREPIT":0,"BENCHES":0,"PLAYGRNDTOT":"No","PLAYGRNDSCHL":"No","SWINGSET":"No","BBALLCOURT":"No","TENNISCOURT":"No","VBALLCOURT":"No","HORSESHOES":"No","ADDAMENITIES":"Sledding","OWNEDBY":"City","MAINTBY":"City","AREA_SQFT":105600.11536076,"AREA_ACRES":2.4242547700000001,"LASTUPDATE":null,"LASTEDITOR":null,"NOTES":null,"FACILITYID":"626","PARKINGTYPE":"None","PARKINGNUMSTALLS":0,"BOATING":null,"ORIG_FID":153,"HASPAVILION":"No","HASTABLES":"No","HASFIREPIT":"No","HASBENCHES":"No","BASEBALL":null,"FISHING":null,"URL":"http://www.saratogaspringscity.com/Facilities/Facility/Details/Valley-View-Park-52","PICURL":null,"HASBBQ":null,"TRAILHEAD":null}},{"type":"Feature","id":45,"geometry":{"type":"Point","coordinates":[-111.8718132179123,40.290317594204744]},"properties":{"GlobalID":"{57D245B7-D352-4DC6-9CE4-4BE550753AB0}","created_user":null,"created_date":null,"last_edited_user":null,"last_edited_date":null,"OBJECTID":45,"PARKID":1,"TYPE":"RegionalPark","NAME":"Marina Park","COMMONNAME":"Marina Park","ADDRESS":"156 E HARBOR PKWY","USE_":"Recreation","STATUS":"Constructed","RESERVABLE":"Yes","PATH":"No","BATHROOM":"Yes","DRINKINGFNTN":"Yes","PAVILION":7,"TABLES":13,"BBQGRILLS":6,"FIREPIT":5,"BENCHES":0,"PLAYGRNDTOT":"No","PLAYGRNDSCHL":"No","SWINGSET":"No","BBALLCOURT":"No","TENNISCOURT":"No","VBALLCOURT":"No","HORSESHOES":"No","ADDAMENITIES":"$8 Day Pass, Fishing, Fish Cleaning Station, Outside Showers, 28 space dock, 3 wide ramp","OWNEDBY":"City","MAINTBY":"City","AREA_SQFT":549629.12685004994,"AREA_ACRES":12.61779902,"LASTUPDATE":null,"LASTEDITOR":null,"NOTES":null,"FACILITYID":"664","PARKINGTYPE":"Lot","PARKINGNUMSTALLS":105,"BOATING":"Yes","ORIG_FID":122,"HASPAVILION":"Yes","HASTABLES":"Yes","HASFIREPIT":"Yes","HASBENCHES":"No","BASEBALL":"No","FISHING":"Yes","URL":"http://www.saratogaspringscity.com/Facilities/Facility/Details/Marina-Park-12","PICURL":null,"HASBBQ":null,"TRAILHEAD":null}},{"type":"Feature","id":64,"geometry":{"type":"Point","coordinates":[-111.9017683446703,40.363721543683241]},"properties":{"GlobalID":"{F77C6657-2E70-4499-AF21-8B2F5392BBA3}","created_user":null,"created_date":null,"last_edited_user":null,"last_edited_date":null,"OBJECTID":64,"PARKID":92,"TYPE":"Public Park","NAME":"RC Airplane Park","COMMONNAME":"Wetlands Park","ADDRESS":"7205 N SARATOGA RD","USE_":"Recreation","STATUS":"Constructed","RESERVABLE":" ","PATH":null,"BATHROOM":" ","DRINKINGFNTN":null,"PAVILION":null,"TABLES":null,"BBQGRILLS":null,"FIREPIT":null,"BENCHES":null,"PLAYGRNDTOT":null,"PLAYGRNDSCHL":null,"SWINGSET":null,"BBALLCOURT":null,"TENNISCOURT":null,"VBALLCOURT":null,"HORSESHOES":null,"ADDAMENITIES":" ","OWNEDBY":"City","MAINTBY":"City","AREA_SQFT":486296.81378488999,"AREA_ACRES":11.16388336,"LASTUPDATE":null,"LASTEDITOR":null,"NOTES":null,"FACILITYID":"95","PARKINGTYPE":"Lot","PARKINGNUMSTALLS":null,"BOATING":null,"ORIG_FID":41,"HASPAVILION":null,"HASTABLES":null,"HASFIREPIT":null,"HASBENCHES":null,"BASEBALL":null,"FISHING":null,"URL":"http://www.saratogaspringscity.com/Facilities/Facility/Details/RC-Airplane-Park-County-17","PICURL":null,"HASBBQ":null,"TRAILHEAD":null}},{"type":"Feature","id":65,"geometry":{"type":"Point","coordinates":[-111.92786309309271,40.392372407816701]},"properties":{"GlobalID":"{BE8DCE33-9EDD-40D0-8984-633ADE2CC13F}","created_user":null,"created_date":null,"last_edited_user":null,"last_edited_date":null,"OBJECTID":65,"PARKID":81,"TYPE":"RegionalPark","NAME":"Shay Park","COMMONNAME":"Shay Park","ADDRESS":"516 W ASPEN HILLS BLVD","USE_":"Recreation","STATUS":"Constructed","RESERVABLE":" ","PATH":"Yes","BATHROOM":"Yes","DRINKINGFNTN":"Yes","PAVILION":1,"TABLES":10,"BBQGRILLS":0,"FIREPIT":0,"BENCHES":4,"PLAYGRNDTOT":"No","PLAYGRNDSCHL":"Yes","SWINGSET":"Yes","BBALLCOURT":"No","TENNISCOURT":"No","VBALLCOURT":"No","HORSESHOES":"No","ADDAMENITIES":" ","OWNEDBY":"City","MAINTBY":"City","AREA_SQFT":514914.08778956003,"AREA_ACRES":11.8208482,"LASTUPDATE":null,"LASTEDITOR":null,"NOTES":null,"FACILITYID":"167","PARKINGTYPE":"Lot","PARKINGNUMSTALLS":78,"BOATING":"No","ORIG_FID":210,"HASPAVILION":"Yes","HASTABLES":"Yes","HASFIREPIT":"No","HASBENCHES":"Yes","BASEBALL":null,"FISHING":null,"URL":"http://www.saratogaspringscity.com/Facilities/Facility/Details/Shay-Park-41","PICURL":"http://www.saratogaspringscity.com/ImageRepository/Document?documentID=2371","HASBBQ":null,"TRAILHEAD":null}},{"type":"Feature","id":81,"geometry":{"type":"Point","coordinates":[-111.90348186103296,40.316659438708463]},"properties":{"GlobalID":"{D5E1260F-37EE-422A-BEF1-670BA0A937C5}","created_user":null,"created_date":null,"last_edited_user":null,"last_edited_date":null,"OBJECTID":81,"PARKID":97,"TYPE":"Public Park","NAME":"Palomino Park","COMMONNAME":"Oreo Park","ADDRESS":"2479 S PALOMINO DR","USE_":"OpenSpace","STATUS":"Constructed","RESERVABLE":"No","PATH":"Yes","BATHROOM":"No","DRINKINGFNTN":"No","PAVILION":0,"TABLES":0,"BBQGRILLS":0,"FIREPIT":0,"BENCHES":2,"PLAYGRNDTOT":"No","PLAYGRNDSCHL":"No","SWINGSET":"No","BBALLCOURT":"No","TENNISCOURT":"No","VBALLCOURT":"No","HORSESHOES":"No","ADDAMENITIES":" ","OWNEDBY":"City","MAINTBY":"City","AREA_SQFT":114976.52714177,"AREA_ACRES":2.6395084299999998,"LASTUPDATE":null,"LASTEDITOR":null,"NOTES":null,"FACILITYID":"671","PARKINGTYPE":"None","PARKINGNUMSTALLS":0,"BOATING":null,"ORIG_FID":85,"HASPAVILION":"No","HASTABLES":"No","HASFIREPIT":"No","HASBENCHES":"Yes","BASEBALL":null,"FISHING":null,"URL":"http://www.saratogaspringscity.com/Facilities/Facility/Details/Palomino-Park-45","PICURL":null,"HASBBQ":null,"TRAILHEAD":null}},{"type":"Feature","id":82,"geometry":{"type":"Point","coordinates":[-111.93733890908798,40.371397610044887]},"properties":{"GlobalID":"{27B8876C-AFF0-4CA6-99C0-8F3098BDF28E}","created_user":null,"created_date":null,"last_edited_user":null,"last_edited_date":null,"OBJECTID":82,"PARKID":null,"TYPE":"Public Park","NAME":"Talus Park","COMMONNAME":"Talus Park","ADDRESS":"891 W TALUS RIDGE DR","USE_":"Detention","STATUS":"Constructed","RESERVABLE":null,"PATH":null,"BATHROOM":null,"DRINKINGFNTN":null,"PAVILION":null,"TABLES":null,"BBQGRILLS":null,"FIREPIT":null,"BENCHES":null,"PLAYGRNDTOT":null,"PLAYGRNDSCHL":null,"SWINGSET":null,"BBALLCOURT":null,"TENNISCOURT":null,"VBALLCOURT":null,"HORSESHOES":null,"ADDAMENITIES":null,"OWNEDBY":"City","MAINTBY":"City","AREA_SQFT":146569.85291746,"AREA_ACRES":3.3647942899999999,"LASTUPDATE":null,"LASTEDITOR":null,"NOTES":null,"FACILITYID":"6116","PARKINGTYPE":"None","PARKINGNUMSTALLS":0,"BOATING":"No","ORIG_FID":177,"HASPAVILION":null,"HASTABLES":null,"HASFIREPIT":null,"HASBENCHES":null,"BASEBALL":null,"FISHING":null,"URL":"http://www.saratogaspringscity.com/Facilities/Facility/Details/Talus-Park-A-42","PICURL":null,"HASBBQ":null,"TRAILHEAD":null}},{"type":"Feature","id":102,"geometry":{"type":"Point","coordinates":[-111.93162624349694,40.400479279922642]},"properties":{"GlobalID":"{AFFA4388-20AD-4819-AD9B-3AC677C72381}","created_user":null,"created_date":null,"last_edited_user":null,"last_edited_date":null,"OBJECTID":102,"PARKID":15,"TYPE":"RegionalPark","NAME":"Harvest Park","COMMONNAME":"Harvest Hills Regional","ADDRESS":"2104 N PROVIDENCE DR","USE_":"Recreation","STATUS":"Constructed","RESERVABLE":"Yes","PATH":"Yes","BATHROOM":"Yes","DRINKINGFNTN":"Yes","PAVILION":1,"TABLES":12,"BBQGRILLS":2,"FIREPIT":0,"BENCHES":11,"PLAYGRNDTOT":"Yes","PLAYGRNDSCHL":"Yes","SWINGSET":"Yes","BBALLCOURT":"No","TENNISCOURT":"No","VBALLCOURT":"No","HORSESHOES":"No","ADDAMENITIES":"pavilion has 8 of the 12 tables","OWNEDBY":"City","MAINTBY":"City","AREA_SQFT":581103.96429552999,"AREA_ACRES":13.340364750000001,"LASTUPDATE":null,"LASTEDITOR":null,"NOTES":"","FACILITYID":"610","PARKINGTYPE":"Lot","PARKINGNUMSTALLS":31,"BOATING":"No","ORIG_FID":88,"HASPAVILION":"Yes","HASTABLES":"Yes","HASFIREPIT":"No","HASBENCHES":"Yes","BASEBALL":null,"FISHING":null,"URL":"http://www.saratogaspringscity.com/Facilities/Facility/Details/Harvest-Hills-Regional-Park-5","PICURL":null,"HASBBQ":null,"TRAILHEAD":null}},{"type":"Feature","id":108,"geometry":{"type":"Point","coordinates":[-111.94260620733948,40.374157182079394]},"properties":{"GlobalID":"{50981AB0-5B9C-42E4-8F3C-B6E021DD88BC}","created_user":null,"created_date":null,"last_edited_user":null,"last_edited_date":null,"OBJECTID":108,"PARKID":103,"TYPE":"RegionalPark","NAME":"Pinnacle Park","COMMONNAME":"Pinnacle Park","ADDRESS":"678 N PINNACLE LN","USE_":"Recreation","STATUS":"Constructed","RESERVABLE":null,"PATH":"Yes","BATHROOM":"Yes","DRINKINGFNTN":"No","PAVILION":0,"TABLES":0,"BBQGRILLS":0,"FIREPIT":0,"BENCHES":2,"PLAYGRNDTOT":"No","PLAYGRNDSCHL":"Yes","SWINGSET":"No","BBALLCOURT":"Yes","TENNISCOURT":"No","VBALLCOURT":"No","HORSESHOES":"No","ADDAMENITIES":null,"OWNEDBY":"City","MAINTBY":"City","AREA_SQFT":238801.54822391001,"AREA_ACRES":5.4821511300000001,"LASTUPDATE":null,"LASTEDITOR":null,"NOTES":null,"FACILITYID":"6117","PARKINGTYPE":"Street-Unmarked","PARKINGNUMSTALLS":0,"BOATING":"No","ORIG_FID":102,"HASPAVILION":"No","HASTABLES":"No","HASFIREPIT":"No","HASBENCHES":"Yes","BASEBALL":null,"FISHING":null,"URL":"http://www.saratogaspringscity.com/Facilities/Facility/Details/Talus-Park-B-43","PICURL":null,"HASBBQ":null,"TRAILHEAD":null}},{"type":"Feature","id":109,"geometry":{"type":"Point","coordinates":[-111.88431032118328,40.295061640223125]},"properties":{"GlobalID":"{B37BE4F2-9957-4750-B18F-43A4B52ED9E8}","created_user":null,"created_date":null,"last_edited_user":null,"last_edited_date":null,"OBJECTID":109,"PARKID":5,"TYPE":"Public Park","NAME":"Lakewood Park","COMMONNAME":"Plat E (Lake Vista Park)","ADDRESS":"3696 S LAKE MOUNTAIN DR","USE_":"Recreation","STATUS":"Constructed","RESERVABLE":"No","PATH":"Yes","BATHROOM":"No","DRINKINGFNTN":"Yes","PAVILION":1,"TABLES":2,"BBQGRILLS":0,"FIREPIT":0,"BENCHES":1,"PLAYGRNDTOT":"No","PLAYGRNDSCHL":"Yes","SWINGSET":"Yes","BBALLCOURT":"No","TENNISCOURT":"No","VBALLCOURT":"Yes","HORSESHOES":"No","ADDAMENITIES":" ","OWNEDBY":"City","MAINTBY":"City","AREA_SQFT":40034.120560399999,"AREA_ACRES":0.91906061999999999,"LASTUPDATE":null,"LASTEDITOR":null,"NOTES":null,"FACILITYID":"627","PARKINGTYPE":"None","PARKINGNUMSTALLS":0,"BOATING":null,"ORIG_FID":192,"HASPAVILION":"Yes","HASTABLES":"Yes","HASFIREPIT":"No","HASBENCHES":"Yes","BASEBALL":null,"FISHING":null,"URL":"http://www.saratogaspringscity.com/Facilities/Facility/Details/Lake-Vista-Park-Plat-E-9","PICURL":null,"HASBBQ":null,"TRAILHEAD":null}},{"type":"Feature","id":114,"geometry":{"type":"Point","coordinates":[-111.93047897823017,40.367370830658885]},"properties":{"GlobalID":"{685B4C74-4611-4DB0-8FDE-B75D1D1BB64E}","created_user":null,"created_date":null,"last_edited_user":null,"last_edited_date":null,"OBJECTID":114,"PARKID":54,"TYPE":"Public Park","NAME":"Triton Park","COMMONNAME":"Sunset Park","ADDRESS":"563 W MALIA LN","USE_":"OpenSpace","STATUS":"Constructed","RESERVABLE":"No","PATH":"Yes","BATHROOM":"No","DRINKINGFNTN":"No","PAVILION":0,"TABLES":0,"BBQGRILLS":0,"FIREPIT":0,"BENCHES":0,"PLAYGRNDTOT":"No","PLAYGRNDSCHL":"No","SWINGSET":"No","BBALLCOURT":"No","TENNISCOURT":"No","VBALLCOURT":"No","HORSESHOES":"No","ADDAMENITIES":" ","OWNEDBY":"City","MAINTBY":"City","AREA_SQFT":145267.35101011,"AREA_ACRES":3.3348928400000002,"LASTUPDATE":null,"LASTEDITOR":null,"NOTES":null,"FACILITYID":"625","PARKINGTYPE":"None","PARKINGNUMSTALLS":0,"BOATING":null,"ORIG_FID":212,"HASPAVILION":"No","HASTABLES":"No","HASFIREPIT":"No","HASBENCHES":"No","BASEBALL":null,"FISHING":null,"URL":"http://www.saratogaspringscity.com/Facilities/Facility/Details/Triton-Park-51","PICURL":null,"HASBBQ":null,"TRAILHEAD":null}},{"type":"Feature","id":122,"geometry":{"type":"Point","coordinates":[-111.91217910167795,40.375596765874377]},"properties":{"GlobalID":"{0D3918CA-F876-4EBA-A790-538985F7F183}","created_user":null,"created_date":null,"last_edited_user":null,"last_edited_date":null,"OBJECTID":122,"PARKID":16,"TYPE":"Public Park","NAME":"Devonshire Park","COMMONNAME":"Dalmore Meadows Park","ADDRESS":"756 N DEVONSHIRE DR","USE_":"Recreation","STATUS":"Constructed","RESERVABLE":"No","PATH":"Yes","BATHROOM":"No","DRINKINGFNTN":"No","PAVILION":1,"TABLES":3,"BBQGRILLS":0,"FIREPIT":0,"BENCHES":1,"PLAYGRNDTOT":"No","PLAYGRNDSCHL":"Yes","SWINGSET":"No","BBALLCOURT":"No","TENNISCOURT":"No","VBALLCOURT":"No","HORSESHOES":"No","ADDAMENITIES":" ","OWNEDBY":"City","MAINTBY":"City","AREA_SQFT":60226.117112940003,"AREA_ACRES":1.3826069299999999,"LASTUPDATE":null,"LASTEDITOR":null,"NOTES":null,"FACILITYID":"69","PARKINGTYPE":"None","PARKINGNUMSTALLS":0,"BOATING":null,"ORIG_FID":26,"HASPAVILION":"Yes","HASTABLES":"Yes","HASFIREPIT":"No","HASBENCHES":"Yes","BASEBALL":null,"FISHING":null,"URL":"http://www.saratogaspringscity.com/Facilities/Facility/Details/Devonshire-Park-46","PICURL":null,"HASBBQ":null,"TRAILHEAD":null}},{"type":"Feature","id":143,"geometry":{"type":"Point","coordinates":[-111.9242196794056,40.33795485747126]},"properties":{"GlobalID":"{2D57DFC5-A87E-4D80-95D3-1E1F19964852}","created_user":null,"created_date":null,"last_edited_user":null,"last_edited_date":null,"OBJECTID":143,"PARKID":11,"TYPE":"Public Park","NAME":"Island Park","COMMONNAME":"Saratoga Hills Park/Triangle Park","ADDRESS":"352 W ALPINE DR","USE_":"Recreation","STATUS":"Constructed","RESERVABLE":"No","PATH":"Yes","BATHROOM":"No","DRINKINGFNTN":"Yes","PAVILION":1,"TABLES":3,"BBQGRILLS":1,"FIREPIT":0,"BENCHES":3,"PLAYGRNDTOT":"No","PLAYGRNDSCHL":"Yes","SWINGSET":"No","BBALLCOURT":"No","TENNISCOURT":"No","VBALLCOURT":"No","HORSESHOES":"No","ADDAMENITIES":" ","OWNEDBY":"City","MAINTBY":"City","AREA_SQFT":82924.166602590005,"AREA_ACRES":1.90368453,"LASTUPDATE":null,"LASTEDITOR":null,"NOTES":null,"FACILITYID":"630","PARKINGTYPE":"None","PARKINGNUMSTALLS":0,"BOATING":null,"ORIG_FID":125,"HASPAVILION":"Yes","HASTABLES":"Yes","HASFIREPIT":"No","HASBENCHES":"Yes","BASEBALL":null,"FISHING":null,"URL":null,"PICURL":null,"HASBBQ":null,"TRAILHEAD":null}},{"type":"Feature","id":144,"geometry":{"type":"Point","coordinates":[-111.9102656854473,40.319902638064356]},"properties":{"GlobalID":"{53D8F3C3-5A95-4942-ADFA-5C3A6B53EDD1}","created_user":null,"created_date":null,"last_edited_user":null,"last_edited_date":null,"OBJECTID":144,"PARKID":9,"TYPE":"Public Park","NAME":"Remington Park","COMMONNAME":"Jacobs Ranch Tot Lot","ADDRESS":"2317 S WESTERN DR","USE_":"Recreation","STATUS":"Constructed","RESERVABLE":"No","PATH":"No","BATHROOM":"No","DRINKINGFNTN":"Yes","PAVILION":1,"TABLES":6,"BBQGRILLS":2,"FIREPIT":0,"BENCHES":2,"PLAYGRNDTOT":"Yes","PLAYGRNDSCHL":"No","SWINGSET":"Yes","BBALLCOURT":"No","TENNISCOURT":"No","VBALLCOURT":"No","HORSESHOES":"No","ADDAMENITIES":" ","OWNEDBY":"City","MAINTBY":"City","AREA_SQFT":43540.383316649997,"AREA_ACRES":0.99955366000000001,"LASTUPDATE":null,"LASTEDITOR":null,"NOTES":null,"FACILITYID":"63","PARKINGTYPE":"None","PARKINGNUMSTALLS":0,"BOATING":null,"ORIG_FID":34,"HASPAVILION":"Yes","HASTABLES":"Yes","HASFIREPIT":"No","HASBENCHES":"Yes","BASEBALL":null,"FISHING":null,"URL":"http://www.saratogaspringscity.com/Facilities/Facility/Details/Jacobs-Ranch-Tot-Lot-7","PICURL":null,"HASBBQ":null,"TRAILHEAD":null}},{"type":"Feature","id":145,"geometry":{"type":"Point","coordinates":[-111.93087312174177,40.333701792175141]},"properties":{"GlobalID":"{A85582A9-9A0D-45A0-81AD-702C06446E43}","created_user":null,"created_date":null,"last_edited_user":null,"last_edited_date":null,"OBJECTID":145,"PARKID":36,"TYPE":"Public Park","NAME":"Fitness Trail Park","COMMONNAME":"Benches Nature Park","ADDRESS":"1582 S ROCKY RIDGE CT","USE_":"OpenSpace","STATUS":"Constructed","RESERVABLE":"No","PATH":"Yes","BATHROOM":"No","DRINKINGFNTN":"No","PAVILION":0,"TABLES":0,"BBQGRILLS":0,"FIREPIT":0,"BENCHES":0,"PLAYGRNDTOT":"No","PLAYGRNDSCHL":"No","SWINGSET":"No","BBALLCOURT":"No","TENNISCOURT":"No","VBALLCOURT":"No","HORSESHOES":"No","ADDAMENITIES":" ","OWNEDBY":"City","MAINTBY":"City","AREA_SQFT":389727.25220589997,"AREA_ACRES":8.9469423999999993,"LASTUPDATE":null,"LASTEDITOR":null,"NOTES":null,"FACILITYID":"638","PARKINGTYPE":"None","PARKINGNUMSTALLS":0,"BOATING":null,"ORIG_FID":145,"HASPAVILION":"No","HASTABLES":"No","HASFIREPIT":"No","HASBENCHES":"No","BASEBALL":null,"FISHING":null,"URL":"http://www.saratogaspringscity.com/Facilities/Facility/Details/Fitness-Trail-Park-49","PICURL":null,"HASBBQ":null,"TRAILHEAD":null}},{"type":"Feature","id":147,"geometry":{"type":"Point","coordinates":[-111.93948214839818,40.381999611489434]},"properties":{"GlobalID":"{9BA8F001-BF4D-4161-BE6A-67CBC4E343A6}","created_user":null,"created_date":null,"last_edited_user":"BGIBSON","last_edited_date":1714424719000,"OBJECTID":147,"PARKID":99,"TYPE":"Public Park","NAME":"Sunrise Bike Park","COMMONNAME":"Sunrise Bike Park","ADDRESS":"943 W 1200 NORTH","USE_":"Recreation","STATUS":"Constructed","RESERVABLE":"No","PATH":"Yes","BATHROOM":"No","DRINKINGFNTN":"No","PAVILION":0,"TABLES":0,"BBQGRILLS":0,"FIREPIT":0,"BENCHES":0,"PLAYGRNDTOT":"No","PLAYGRNDSCHL":"No","SWINGSET":"No","BBALLCOURT":"No","TENNISCOURT":"No","VBALLCOURT":"No","HORSESHOES":"No","ADDAMENITIES":"Mountain Biking","OWNEDBY":"City","MAINTBY":"City","AREA_SQFT":323751.86904333998,"AREA_ACRES":7.4323499599999998,"LASTUPDATE":null,"LASTEDITOR":null,"NOTES":null,"FACILITYID":"133","PARKINGTYPE":"Street-Unmarked","PARKINGNUMSTALLS":0,"BOATING":"No","ORIG_FID":7,"HASPAVILION":"No","HASTABLES":"No","HASFIREPIT":"No","HASBENCHES":"No","BASEBALL":"No","FISHING":"No","URL":null,"PICURL":null,"HASBBQ":null,"TRAILHEAD":null}},{"type":"Feature","id":151,"geometry":{"type":"Point","coordinates":[-111.90020790072715,40.315759460117611]},"properties":{"GlobalID":"{70BAC687-D6FC-485E-92B9-466F36869FDA}","created_user":null,"created_date":null,"last_edited_user":null,"last_edited_date":null,"OBJECTID":151,"PARKID":8,"TYPE":"Public Park","NAME":"Honeysuckle Park","COMMONNAME":"Summer Hill Park","ADDRESS":"186 W SUMMERHILL DR","USE_":"OpenSpace","STATUS":"Constructed","RESERVABLE":"No","PATH":"Yes","BATHROOM":"No","DRINKINGFNTN":"No","PAVILION":0,"TABLES":0,"BBQGRILLS":0,"FIREPIT":0,"BENCHES":0,"PLAYGRNDTOT":"No","PLAYGRNDSCHL":"No","SWINGSET":"No","BBALLCOURT":"No","TENNISCOURT":"No","VBALLCOURT":"No","HORSESHOES":"No","ADDAMENITIES":" ","OWNEDBY":"City","MAINTBY":"City","AREA_SQFT":116210.12516367,"AREA_ACRES":2.6678280499999998,"LASTUPDATE":null,"LASTEDITOR":null,"NOTES":null,"FACILITYID":"64","PARKINGTYPE":"None","PARKINGNUMSTALLS":0,"BOATING":null,"ORIG_FID":140,"HASPAVILION":"No","HASTABLES":"No","HASFIREPIT":"No","HASBENCHES":"No","BASEBALL":null,"FISHING":null,"URL":"http://www.saratogaspringscity.com/Facilities/Facility/Details/Honeysuckle-Park-44","PICURL":null,"HASBBQ":null,"TRAILHEAD":null}},{"type":"Feature","id":174,"geometry":{"type":"Point","coordinates":[-111.90583016478345,40.356187782921431]},"properties":{"GlobalID":"{A7D0CFC9-6AA7-4402-8C5F-F2D9C8ACF8EB}","created_user":null,"created_date":null,"last_edited_user":null,"last_edited_date":null,"OBJECTID":174,"PARKID":105,"TYPE":"RegionalPark","NAME":"Patriot Park","COMMONNAME":"Patriot Park","ADDRESS":"444 E 400 SOUTH","USE_":"Recreation","STATUS":"Unconstructed","RESERVABLE":null,"PATH":null,"BATHROOM":null,"DRINKINGFNTN":null,"PAVILION":null,"TABLES":null,"BBQGRILLS":null,"FIREPIT":null,"BENCHES":null,"PLAYGRNDTOT":null,"PLAYGRNDSCHL":null,"SWINGSET":null,"BBALLCOURT":null,"TENNISCOURT":null,"VBALLCOURT":null,"HORSESHOES":null,"ADDAMENITIES":null,"OWNEDBY":"City","MAINTBY":"City","AREA_SQFT":null,"AREA_ACRES":30.016759130000001,"LASTUPDATE":null,"LASTEDITOR":null,"NOTES":null,"FACILITYID":null,"PARKINGTYPE":"Lot","PARKINGNUMSTALLS":null,"BOATING":"No","ORIG_FID":117,"HASPAVILION":null,"HASTABLES":null,"HASFIREPIT":null,"HASBENCHES":null,"BASEBALL":"Yes","FISHING":null,"URL":null,"PICURL":null,"HASBBQ":null,"TRAILHEAD":null}},{"type":"Feature","id":175,"geometry":{"type":"Point","coordinates":[-111.89978447726959,40.357255851947585]},"properties":{"GlobalID":"{0252FA4A-6FF4-4BE8-9023-333CAADB587A}","created_user":null,"created_date":null,"last_edited_user":null,"last_edited_date":null,"OBJECTID":175,"PARKID":84,"TYPE":"RegionalPark","NAME":"Inlet Park","COMMONNAME":"Inlet Park","ADDRESS":"222 S SARATOGA RD","USE_":"Recreation","STATUS":"Constructed","RESERVABLE":"Yes","PATH":"Yes","BATHROOM":"Yes","DRINKINGFNTN":"No","PAVILION":1,"TABLES":8,"BBQGRILLS":0,"FIREPIT":0,"BENCHES":0,"PLAYGRNDTOT":"No","PLAYGRNDSCHL":"Yes","SWINGSET":"No","BBALLCOURT":"No","TENNISCOURT":"No","VBALLCOURT":"No","HORSESHOES":"No","ADDAMENITIES":" ","OWNEDBY":"City","MAINTBY":"City","AREA_SQFT":825019.12699401996,"AREA_ACRES":18.93990879,"LASTUPDATE":null,"LASTEDITOR":null,"NOTES":null,"FACILITYID":"76","PARKINGTYPE":"Lot","PARKINGNUMSTALLS":56,"BOATING":"No","ORIG_FID":28,"HASPAVILION":"Yes","HASTABLES":"Yes","HASFIREPIT":"No","HASBENCHES":"No","BASEBALL":null,"FISHING":null,"URL":"http://www.saratogaspringscity.com/Facilities/Facility/Details/Inlet-Park-County-6","PICURL":null,"HASBBQ":null,"TRAILHEAD":null}},{"type":"Feature","id":178,"geometry":{"type":"Point","coordinates":[-111.92769921163121,40.370245245591569]},"properties":{"GlobalID":"{FD4DF0DB-DFE0-4811-B646-EB5A9BE8B008}","created_user":null,"created_date":null,"last_edited_user":null,"last_edited_date":null,"OBJECTID":178,"PARKID":53,"TYPE":"RegionalPark","NAME":"Neptune Park","COMMONNAME":"Neptune Park","ADDRESS":"473 W 400 NORTH","USE_":"Recreation","STATUS":"Constructed","RESERVABLE":"Yes","PATH":"Yes","BATHROOM":"Yes","DRINKINGFNTN":"Yes","PAVILION":1,"TABLES":12,"BBQGRILLS":6,"FIREPIT":0,"BENCHES":14,"PLAYGRNDTOT":"Yes","PLAYGRNDSCHL":"Yes","SWINGSET":"Yes","BBALLCOURT":"Yes","TENNISCOURT":"No","VBALLCOURT":"No","HORSESHOES":"No","ADDAMENITIES":" ","OWNEDBY":"City","MAINTBY":"City","AREA_SQFT":473224.88644664001,"AREA_ACRES":10.863792,"LASTUPDATE":null,"LASTEDITOR":null,"NOTES":null,"FACILITYID":"672","PARKINGTYPE":"Lot/Street Marked","PARKINGNUMSTALLS":92,"BOATING":"No","ORIG_FID":129,"HASPAVILION":"Yes","HASTABLES":"Yes","HASFIREPIT":"No","HASBENCHES":"Yes","BASEBALL":null,"FISHING":null,"URL":"http://www.saratogaspringscity.com/Facilities/Facility/Details/Neptune-Park-14","PICURL":"http://www.saratogaspringscity.com/ImageRepository/Document?documentID=2367","HASBBQ":null,"TRAILHEAD":null}},{"type":"Feature","id":196,"geometry":{"type":"Point","coordinates":[-111.88091322491725,40.287719770205655]},"properties":{"GlobalID":"{EB1ADA82-1CE1-46A7-8245-44EC73509C29}","created_user":null,"created_date":null,"last_edited_user":null,"last_edited_date":null,"OBJECTID":196,"PARKID":4,"TYPE":"Public Park","NAME":"Mountain Moon Park","COMMONNAME":"Plat J (Mountain Moon Park)","ADDRESS":"4112 S MOUNTAIN MOON DR","USE_":"Recreation","STATUS":"Constructed","RESERVABLE":"No","PATH":"No","BATHROOM":"No","DRINKINGFNTN":"No","PAVILION":2,"TABLES":2,"BBQGRILLS":0,"FIREPIT":0,"BENCHES":0,"PLAYGRNDTOT":"No","PLAYGRNDSCHL":"Yes","SWINGSET":"Yes","BBALLCOURT":"No","TENNISCOURT":"No","VBALLCOURT":"No","HORSESHOES":"No","ADDAMENITIES":" ","OWNEDBY":"City","MAINTBY":"City","AREA_SQFT":39636.489637359999,"AREA_ACRES":0.90993223999999995,"LASTUPDATE":null,"LASTEDITOR":null,"NOTES":null,"FACILITYID":"688","PARKINGTYPE":"None","PARKINGNUMSTALLS":0,"BOATING":null,"ORIG_FID":37,"HASPAVILION":"Yes","HASTABLES":"Yes","HASFIREPIT":"No","HASBENCHES":"No","BASEBALL":null,"FISHING":null,"URL":"http://www.saratogaspringscity.com/Facilities/Facility/Details/Mountain-Moon-Park-13","PICURL":null,"HASBBQ":null,"TRAILHEAD":null}},{"type":"Feature","id":197,"geometry":{"type":"Point","coordinates":[-111.93053205923906,40.336709935108054]},"properties":{"GlobalID":"{AE36D173-05F4-4CA3-A9EB-3BD6B63BAF13}","created_user":null,"created_date":null,"last_edited_user":null,"last_edited_date":null,"OBJECTID":197,"PARKID":91,"TYPE":"Public Park","NAME":"Regal Park","COMMONNAME":"Plat 8","ADDRESS":"1397 S ALLISON WAY","USE_":"Recreation","STATUS":"Constructed","RESERVABLE":"Yes","PATH":null,"BATHROOM":null,"DRINKINGFNTN":null,"PAVILION":null,"TABLES":null,"BBQGRILLS":null,"FIREPIT":null,"BENCHES":null,"PLAYGRNDTOT":null,"PLAYGRNDSCHL":null,"SWINGSET":null,"BBALLCOURT":null,"TENNISCOURT":null,"VBALLCOURT":null,"HORSESHOES":null,"ADDAMENITIES":" ","OWNEDBY":"City","MAINTBY":"City","AREA_SQFT":236814.17341913001,"AREA_ACRES":5.4365271000000002,"LASTUPDATE":null,"LASTEDITOR":null,"NOTES":null,"FACILITYID":"90","PARKINGTYPE":null,"PARKINGNUMSTALLS":null,"BOATING":null,"ORIG_FID":42,"HASPAVILION":null,"HASTABLES":null,"HASFIREPIT":null,"HASBENCHES":null,"BASEBALL":null,"FISHING":null,"URL":"http://www.saratogaspringscity.com/Facilities/Facility/Details/Regal-Park-47","PICURL":null,"HASBBQ":null,"TRAILHEAD":null}},{"type":"Feature","id":205,"geometry":{"type":"Point","coordinates":[-111.86280261028456,40.36262188794494]},"properties":{"GlobalID":"{3FE7EA3D-A615-42E3-AA0E-AE1655681D5C}","created_user":null,"created_date":null,"last_edited_user":null,"last_edited_date":null,"OBJECTID":205,"PARKID":13,"TYPE":"Public Park","NAME":"Lomond Park","COMMONNAME":"Loch Lomond Park","ADDRESS":"2231 E LOCH LOMOND DR","USE_":"Recreation","STATUS":"Constructed","RESERVABLE":"No","PATH":"Yes","BATHROOM":"No","DRINKINGFNTN":"No","PAVILION":1,"TABLES":2,"BBQGRILLS":0,"FIREPIT":0,"BENCHES":2,"PLAYGRNDTOT":"No","PLAYGRNDSCHL":null,"SWINGSET":"Yes","BBALLCOURT":"Yes","TENNISCOURT":"No","VBALLCOURT":"No","HORSESHOES":"No","ADDAMENITIES":" ","OWNEDBY":"City","MAINTBY":"City","AREA_SQFT":38020.594927290003,"AREA_ACRES":0.87283624999999998,"LASTUPDATE":null,"LASTEDITOR":null,"NOTES":null,"FACILITYID":"665","PARKINGTYPE":"None","PARKINGNUMSTALLS":0,"BOATING":null,"ORIG_FID":180,"HASPAVILION":"Yes","HASTABLES":"Yes","HASFIREPIT":"No","HASBENCHES":"Yes","BASEBALL":null,"FISHING":null,"URL":"http://www.saratogaspringscity.com/Facilities/Facility/Details/Loch-Lomond-Park-10","PICURL":null,"HASBBQ":null,"TRAILHEAD":null}},{"type":"Feature","id":208,"geometry":{"type":"Point","coordinates":[-111.89642825169722,40.314841377197318]},"properties":{"GlobalID":"{977542BA-0B6E-4BB8-96F0-D09B2FABDD9D}","created_user":null,"created_date":null,"last_edited_user":null,"last_edited_date":null,"OBJECTID":208,"PARKID":25,"TYPE":"Public Park","NAME":null,"COMMONNAME":" ","ADDRESS":"73 W SUMMERHILL DR","USE_":"OpenSpace","STATUS":"Constructed","RESERVABLE":"No","PATH":"Yes","BATHROOM":"No","DRINKINGFNTN":"No","PAVILION":0,"TABLES":0,"BBQGRILLS":0,"FIREPIT":0,"BENCHES":0,"PLAYGRNDTOT":"No","PLAYGRNDSCHL":"No","SWINGSET":"No","BBALLCOURT":"No","TENNISCOURT":"No","VBALLCOURT":"No","HORSESHOES":"No","ADDAMENITIES":" ","OWNEDBY":"City","MAINTBY":"HOA","AREA_SQFT":26546.525546950001,"AREA_ACRES":0.60942680999999999,"LASTUPDATE":null,"LASTEDITOR":null,"NOTES":null,"FACILITYID":"690","PARKINGTYPE":"None","PARKINGNUMSTALLS":0,"BOATING":null,"ORIG_FID":97,"HASPAVILION":"No","HASTABLES":"No","HASFIREPIT":"No","HASBENCHES":"No","BASEBALL":null,"FISHING":null,"URL":null,"PICURL":null,"HASBBQ":null,"TRAILHEAD":null}},{"type":"Feature","id":213,"geometry":{"type":"Point","coordinates":[-111.94498509413243,40.375280672143283]},"properties":{"GlobalID":"{CE5AF370-2FF7-40BB-AF8A-A0A8DA68C064}","created_user":null,"created_date":null,"last_edited_user":null,"last_edited_date":null,"OBJECTID":213,"PARKID":106,"TYPE":"Public Park","NAME":"Meridian Park","COMMONNAME":"Meridian Park","ADDRESS":"717 N MERIDIAN DR","USE_":"OpenSpace","STATUS":"Constructed","RESERVABLE":"No","PATH":null,"BATHROOM":null,"DRINKINGFNTN":null,"PAVILION":null,"TABLES":null,"BBQGRILLS":null,"FIREPIT":null,"BENCHES":null,"PLAYGRNDTOT":null,"PLAYGRNDSCHL":null,"SWINGSET":null,"BBALLCOURT":null,"TENNISCOURT":null,"VBALLCOURT":null,"HORSESHOES":null,"ADDAMENITIES":null,"OWNEDBY":"City","MAINTBY":"City","AREA_SQFT":148124.76329783001,"AREA_ACRES":3.3999999999999999,"LASTUPDATE":null,"LASTEDITOR":null,"NOTES":null,"FACILITYID":"713","PARKINGTYPE":null,"PARKINGNUMSTALLS":null,"BOATING":"No","ORIG_FID":null,"HASPAVILION":null,"HASTABLES":null,"HASFIREPIT":null,"HASBENCHES":null,"BASEBALL":null,"FISHING":null,"URL":"http://www.saratogaspringscity.com/Facilities/Facility/Details/Talus-Ridge-D-and-E-Park-50","PICURL":null,"HASBBQ":null,"TRAILHEAD":null}},{"type":"Feature","id":214,"geometry":{"type":"Point","coordinates":[-111.88081666652771,40.302881252241328]},"properties":{"GlobalID":"{FC8AEC95-C3CD-45C0-B805-0A50F94F830B}","created_user":null,"created_date":null,"last_edited_user":null,"last_edited_date":null,"OBJECTID":214,"PARKID":null,"TYPE":"Public Park","NAME":"Heron Bay Park","COMMONNAME":"Heron Bay Park","ADDRESS":"3274 S BLACK BITTERN WAY","USE_":null,"STATUS":null,"RESERVABLE":null,"PATH":null,"BATHROOM":null,"DRINKINGFNTN":null,"PAVILION":null,"TABLES":null,"BBQGRILLS":null,"FIREPIT":null,"BENCHES":null,"PLAYGRNDTOT":null,"PLAYGRNDSCHL":null,"SWINGSET":null,"BBALLCOURT":null,"TENNISCOURT":null,"VBALLCOURT":null,"HORSESHOES":null,"ADDAMENITIES":null,"OWNEDBY":"City","MAINTBY":"City","AREA_SQFT":null,"AREA_ACRES":null,"LASTUPDATE":null,"LASTEDITOR":null,"NOTES":null,"FACILITYID":null,"PARKINGTYPE":null,"PARKINGNUMSTALLS":null,"BOATING":null,"ORIG_FID":null,"HASPAVILION":null,"HASTABLES":null,"HASFIREPIT":null,"HASBENCHES":null,"BASEBALL":null,"FISHING":null,"URL":null,"PICURL":null,"HASBBQ":null,"TRAILHEAD":null}},{"type":"Feature","id":217,"geometry":{"type":"Point","coordinates":[-111.93324602777795,40.333794250863463]},"properties":{"GlobalID":"{B0672006-4BA9-49EB-B06E-2A85C5A5BA23}","created_user":"BGIBSON","created_date":1710431279000,"last_edited_user":"BGIBSON","last_edited_date":1711057458000,"OBJECTID":217,"PARKID":402,"TYPE":"Public Park","NAME":"Shadow Ridge Park","COMMONNAME":"Shadow Ridge Park","ADDRESS":null,"USE_":null,"STATUS":"Constructed","RESERVABLE":null,"PATH":null,"BATHROOM":null,"DRINKINGFNTN":null,"PAVILION":null,"TABLES":null,"BBQGRILLS":null,"FIREPIT":null,"BENCHES":null,"PLAYGRNDTOT":null,"PLAYGRNDSCHL":null,"SWINGSET":null,"BBALLCOURT":null,"TENNISCOURT":null,"VBALLCOURT":null,"HORSESHOES":null,"ADDAMENITIES":null,"OWNEDBY":"City","MAINTBY":"City","AREA_SQFT":null,"AREA_ACRES":null,"LASTUPDATE":null,"LASTEDITOR":null,"NOTES":null,"FACILITYID":"413","PARKINGTYPE":null,"PARKINGNUMSTALLS":null,"BOATING":null,"ORIG_FID":null,"HASPAVILION":null,"HASTABLES":null,"HASFIREPIT":null,"HASBENCHES":null,"BASEBALL":null,"FISHING":null,"URL":null,"PICURL":null,"HASBBQ":null,"TRAILHEAD":null}},{"type":"Feature","id":218,"geometry":{"type":"Point","coordinates":[-111.955586279283,40.371989043835441]},"properties":{"GlobalID":"{8650FE63-E18E-4C84-AB4E-FE6698E5F549}","created_user":"BGIBSON","created_date":1710431279000,"last_edited_user":"BGIBSON","last_edited_date":1711057458000,"OBJECTID":218,"PARKID":366,"TYPE":"Public Park","NAME":"Saratoga Ridge Park","COMMONNAME":"Saratoga Ridge Park","ADDRESS":"532 N MT SARATOGA BLVD","USE_":"Recreation","STATUS":"Constructed","RESERVABLE":"Yes","PATH":"Yes","BATHROOM":"Yes","DRINKINGFNTN":"Yes","PAVILION":2,"TABLES":24,"BBQGRILLS":0,"FIREPIT":null,"BENCHES":4,"PLAYGRNDTOT":"Yes","PLAYGRNDSCHL":"Yes","SWINGSET":"Yes","BBALLCOURT":"No","TENNISCOURT":"Yes","VBALLCOURT":"No","HORSESHOES":null,"ADDAMENITIES":null,"OWNEDBY":"City","MAINTBY":"City","AREA_SQFT":null,"AREA_ACRES":null,"LASTUPDATE":null,"LASTEDITOR":null,"NOTES":null,"FACILITYID":"410","PARKINGTYPE":null,"PARKINGNUMSTALLS":63,"BOATING":null,"ORIG_FID":null,"HASPAVILION":null,"HASTABLES":null,"HASFIREPIT":null,"HASBENCHES":null,"BASEBALL":null,"FISHING":null,"URL":null,"PICURL":null,"HASBBQ":null,"TRAILHEAD":null}}]}