{"type":"FeatureCollection","features":[{"type":"Feature","id":8,"geometry":{"type":"Point","coordinates":[-111.94310401999719,40.374364220128328]},"properties":{"created_user":null,"created_date":null,"last_edited_user":"BGALLEGOS","last_edited_date":1686928614000,"OBJECTID":8,"TYPE":"basketball standard","HAS_SLIDE":"","AGERANGE":"","INSTALLDATE":null,"GlobalID":"{AA5B50B0-8407-40B0-8620-B68DBB8E7283}","MANUFACT":"bsn sports Inc.","PARKID":103,"FACILITYID":"5335335","LASTINSPECDATE":1672531200000}},{"type":"Feature","id":15,"geometry":{"type":"Point","coordinates":[-111.93234658859508,40.400587814624323]},"properties":{"created_user":null,"created_date":null,"last_edited_user":"BGALLEGOS","last_edited_date":1686928614000,"OBJECTID":15,"TYPE":"Playground composition 2","HAS_SLIDE":null,"AGERANGE":"5-12","INSTALLDATE":null,"GlobalID":"{3A10B461-1455-4097-81B6-3D4A38E0659C}","MANUFACT":"Game Time, Great Western","PARKID":15,"FACILITYID":"5335342","LASTINSPECDATE":1672531200000}},{"type":"Feature","id":18,"geometry":{"type":"Point","coordinates":[-111.93247575305546,40.400743573273445]},"properties":{"created_user":null,"created_date":null,"last_edited_user":"Esri_Anonymous","last_edited_date":1694447671000,"OBJECTID":18,"TYPE":"Swings","HAS_SLIDE":null,"AGERANGE":"2-12","INSTALLDATE":null,"GlobalID":"{BA5B4024-21E7-46AF-996F-53009CDFF4C4}","MANUFACT":"Game Time, Great Western","PARKID":15,"FACILITYID":"5335345","LASTINSPECDATE":1694108001000}},{"type":"Feature","id":43,"geometry":{"type":"Point","coordinates":[-111.86264507035509,40.362590542297212]},"properties":{"created_user":null,"created_date":null,"last_edited_user":"BGALLEGOS","last_edited_date":1686928614000,"OBJECTID":43,"TYPE":"Swing set","HAS_SLIDE":null,"AGERANGE":"2-12","INSTALLDATE":1490076000000,"GlobalID":"{DE8ED4CA-5CA3-4178-BAC6-007ECB9CDA7A}","MANUFACT":"Landscape Structures, Sontag","PARKID":13,"FACILITYID":"5335370","LASTINSPECDATE":1672531200000}},{"type":"Feature","id":55,"geometry":{"type":"Point","coordinates":[-111.91019967963148,40.319905046630154]},"properties":{"created_user":null,"created_date":null,"last_edited_user":"BGALLEGOS","last_edited_date":1686928614000,"OBJECTID":55,"TYPE":"Agility composite","HAS_SLIDE":null,"AGERANGE":"2-12","INSTALLDATE":null,"GlobalID":"{7187329F-8285-43EF-9A24-37E90E8A6D85}","MANUFACT":"Lewis, great western. Game time","PARKID":9,"FACILITYID":"5335382","LASTINSPECDATE":1672531200000}},{"type":"Feature","id":72,"geometry":{"type":"Point","coordinates":[-111.90574843382504,40.356578828166612]},"properties":{"created_user":null,"created_date":null,"last_edited_user":"BGALLEGOS","last_edited_date":1686928614000,"OBJECTID":72,"TYPE":"Revo spinner","HAS_SLIDE":null,"AGERANGE":"5-12","INSTALLDATE":1533659471000,"GlobalID":"{08ABDDC8-231B-4D55-8628-EC26267AB4D5}","MANUFACT":null,"PARKID":null,"FACILITYID":"5335402","LASTINSPECDATE":1681331078000}},{"type":"Feature","id":75,"geometry":{"type":"Point","coordinates":[-111.8826363595615,40.289951334673944]},"properties":{"created_user":null,"created_date":null,"last_edited_user":"BGALLEGOS","last_edited_date":1686928614000,"OBJECTID":75,"TYPE":"Stop n waste for drinking fountain","HAS_SLIDE":null,"AGERANGE":null,"INSTALLDATE":null,"GlobalID":"{36B3FF91-70AA-4452-BD0C-1001B4C5678A}","MANUFACT":null,"PARKID":null,"FACILITYID":"5335406","LASTINSPECDATE":1672531200000}},{"type":"Feature","id":76,"geometry":{"type":"Point","coordinates":[-111.88262356514302,40.289909555999927]},"properties":{"created_user":null,"created_date":null,"last_edited_user":"BGALLEGOS","last_edited_date":1686928614000,"OBJECTID":76,"TYPE":"Stop n waste for drinking fountain","HAS_SLIDE":null,"AGERANGE":null,"INSTALLDATE":null,"GlobalID":"{D247A04B-D18F-4633-9811-47DEC3E0AA44}","MANUFACT":null,"PARKID":null,"FACILITYID":"5335406","LASTINSPECDATE":1672531200000}},{"type":"Feature","id":80,"geometry":{"type":"Point","coordinates":[-111.92789343229616,40.392154071779629]},"properties":{"created_user":null,"created_date":null,"last_edited_user":null,"last_edited_date":null,"OBJECTID":80,"TYPE":"Saddle Spinners","HAS_SLIDE":null,"AGERANGE":"5-12","INSTALLDATE":null,"GlobalID":"{DBB20A0F-AE7C-4A79-BBAB-5CE45ABF46D7}","MANUFACT":null,"PARKID":81,"FACILITYID":"4136","LASTINSPECDATE":1672531200000}},{"type":"Feature","id":1,"geometry":{"type":"Point","coordinates":[-111.93219604980408,40.400770969677751]},"properties":{"created_user":null,"created_date":null,"last_edited_user":"Esri_Anonymous","last_edited_date":1747252497000,"OBJECTID":1,"TYPE":"cruise line, play world","HAS_SLIDE":"","AGERANGE":"5 -12","INSTALLDATE":1426007253000,"GlobalID":"{95FAA50A-ABDD-4C15-9EAC-328FA4437231}","MANUFACT":"Playworld, Big T Rec","PARKID":15,"FACILITYID":"5335390","LASTINSPECDATE":1724352266000}},{"type":"Feature","id":2,"geometry":{"type":"Point","coordinates":[-111.93851346007341,40.371527300228109]},"properties":{"created_user":null,"created_date":null,"last_edited_user":"Esri_Anonymous","last_edited_date":1763599072000,"OBJECTID":2,"TYPE":"play ground","HAS_SLIDE":"1","AGERANGE":"5-12","INSTALLDATE":1438554208000,"GlobalID":"{5328051A-6D39-4653-B8F6-0374CC9C3462}","MANUFACT":"Playworld (Big T Rec)","PARKID":104,"FACILITYID":"5335391","LASTINSPECDATE":1708714800000}},{"type":"Feature","id":3,"geometry":{"type":"Point","coordinates":[-111.9432043902907,40.374511489877904]},"properties":{"created_user":null,"created_date":null,"last_edited_user":"Esri_Anonymous","last_edited_date":1763599148000,"OBJECTID":3,"TYPE":"playworld, post and play form. SO# 1501097","HAS_SLIDE":"2","AGERANGE":"5-12","INSTALLDATE":1407218400000,"GlobalID":"{628DFA4E-8EF1-435C-972D-BCD97D55470F}","MANUFACT":"playworld, Challengers.  Project # FAL-1446,","PARKID":103,"FACILITYID":"5335330","LASTINSPECDATE":1708714800000}},{"type":"Feature","id":4,"geometry":{"type":"Point","coordinates":[-111.92791001297657,40.392058559159935]},"properties":{"created_user":null,"created_date":null,"last_edited_user":"Esri_Anonymous","last_edited_date":1768227325000,"OBJECTID":4,"TYPE":"train, post and platform","HAS_SLIDE":"3","AGERANGE":"5-12","INSTALLDATE":1452449726000,"GlobalID":"{3524CF61-30C1-4716-A219-4B4D2CEBD0A1}","MANUFACT":"landscape structures, Sontag order #P0023039-01-02","PARKID":81,"FACILITYID":"5335331","LASTINSPECDATE":1765306800000}},{"type":"Feature","id":5,"geometry":{"type":"Point","coordinates":[-111.92798061049463,40.392191220362356]},"properties":{"created_user":null,"created_date":null,"last_edited_user":"Esri_Anonymous","last_edited_date":1765996652000,"OBJECTID":5,"TYPE":"climber, post, platform, ","HAS_SLIDE":"2","AGERANGE":"5-12","INSTALLDATE":1452449919000,"GlobalID":"{2DA12535-0B8D-4FA3-81F8-B24F5911AD0D}","MANUFACT":"landscape structures, Sontag Order #2309-01-03","PARKID":81,"FACILITYID":"5335332","LASTINSPECDATE":1713808800000}},{"type":"Feature","id":6,"geometry":{"type":"Point","coordinates":[-111.92784684056504,40.392276010208917]},"properties":{"created_user":null,"created_date":null,"last_edited_user":"Esri_Anonymous","last_edited_date":1755120673000,"OBJECTID":6,"TYPE":"205800 Topsyturny spinner (rotating)","HAS_SLIDE":"","AGERANGE":"5-12","INSTALLDATE":1452450113000,"GlobalID":"{305F8953-5CCB-43F6-9162-48FA057F7448}","MANUFACT":"landscape structures, Sontag","PARKID":81,"FACILITYID":"5335333","LASTINSPECDATE":1733780177000}},{"type":"Feature","id":7,"geometry":{"type":"Point","coordinates":[-111.92777584952135,40.392184920180426]},"properties":{"created_user":null,"created_date":null,"last_edited_user":"Esri_Anonymous","last_edited_date":1754401986000,"OBJECTID":7,"TYPE":"swing set","HAS_SLIDE":"","AGERANGE":"2-12","INSTALLDATE":1452450198000,"GlobalID":"{C942B9AD-DD80-4E7A-8337-68AF54D2BEF8}","MANUFACT":"Landscape structures (Sontag)","PARKID":81,"FACILITYID":"5335334","LASTINSPECDATE":1729113615000}},{"type":"Feature","id":9,"geometry":{"type":"Point","coordinates":[-111.93074499020967,40.337504419816526]},"properties":{"created_user":null,"created_date":null,"last_edited_user":"Esri_Anonymous","last_edited_date":1754402012000,"OBJECTID":9,"TYPE":"Comp structures 5335329","HAS_SLIDE":"","AGERANGE":"5 - 12","INSTALLDATE":1452533253000,"GlobalID":"{855F8554-EB74-4A45-BCD8-D7C025767D5C}","MANUFACT":"Lewis, great western. game time","PARKID":91,"FACILITYID":"5335329","LASTINSPECDATE":1730387416000}},{"type":"Feature","id":10,"geometry":{"type":"Point","coordinates":[-111.93089483982948,40.337473509811346]},"properties":{"created_user":null,"created_date":null,"last_edited_user":"Esri_Anonymous","last_edited_date":1754402012000,"OBJECTID":10,"TYPE":"Swings","HAS_SLIDE":"","AGERANGE":"","INSTALLDATE":1452533422000,"GlobalID":"{555287DB-4990-44C2-B232-40CA64AF0629}","MANUFACT":"Lewis, great western. Game time","PARKID":91,"FACILITYID":"5335336","LASTINSPECDATE":1730387220000}},{"type":"Feature","id":11,"geometry":{"type":"Point","coordinates":[-111.93243132906919,40.400572707934288]},"properties":{"created_user":null,"created_date":null,"last_edited_user":"Esri_Anonymous","last_edited_date":1747252496000,"OBJECTID":11,"TYPE":"playground composition","HAS_SLIDE":"1","AGERANGE":"5-12","INSTALLDATE":null,"GlobalID":"{5B5CCC74-14B8-40DA-9EBC-F22C237A1F9B}","MANUFACT":"Game Time, Great Western","PARKID":15,"FACILITYID":"5335337","LASTINSPECDATE":1724352391000}},{"type":"Feature","id":12,"geometry":{"type":"Point","coordinates":[-111.93232672278806,40.400631499430425]},"properties":{"created_user":null,"created_date":null,"last_edited_user":"Esri_Anonymous","last_edited_date":1755099763000,"OBJECTID":12,"TYPE":"Squirrel log roller","HAS_SLIDE":null,"AGERANGE":"5-12","INSTALLDATE":null,"GlobalID":"{627B28A8-DBF8-4280-A4C3-5EBC76AFDED4}","MANUFACT":"Game Time, Great Western","PARKID":15,"FACILITYID":"5335338","LASTINSPECDATE":1730527086000}},{"type":"Feature","id":13,"geometry":{"type":"Point","coordinates":[-111.91222767322414,40.375797688266175]},"properties":{"created_user":null,"created_date":null,"last_edited_user":"Esri_Anonymous","last_edited_date":1754401891000,"OBJECTID":13,"TYPE":"Standing spinner","HAS_SLIDE":null,"AGERANGE":"5-12","INSTALLDATE":null,"GlobalID":"{0B3B75BC-C615-4368-8DFB-51E0766117A5}","MANUFACT":"Taft, big t Rec. Playworld","PARKID":16,"FACILITYID":"5335340","LASTINSPECDATE":1730236250000}},{"type":"Feature","id":14,"geometry":{"type":"Point","coordinates":[-111.91218249523773,40.375808374869621]},"properties":{"created_user":null,"created_date":null,"last_edited_user":"Esri_Anonymous","last_edited_date":1754401892000,"OBJECTID":14,"TYPE":"Tune spinner","HAS_SLIDE":null,"AGERANGE":"5-12","INSTALLDATE":null,"GlobalID":"{DCAABFB7-EBBA-4118-9371-478FEDCCBD97}","MANUFACT":"Taft, big t Rec. Playworld","PARKID":16,"FACILITYID":"5335341","LASTINSPECDATE":1730236264000}},{"type":"Feature","id":17,"geometry":{"type":"Point","coordinates":[-111.93203516155528,40.400497194167286]},"properties":{"created_user":null,"created_date":null,"last_edited_user":"Esri_Anonymous","last_edited_date":1747252498000,"OBJECTID":17,"TYPE":"Composition structure ","HAS_SLIDE":"4","AGERANGE":"5-12","INSTALLDATE":1682703384000,"GlobalID":"{017C34C7-AFCC-483F-9710-3289B2F493F0}","MANUFACT":"Playworld","PARKID":15,"FACILITYID":"5335344","LASTINSPECDATE":1724352497000}},{"type":"Feature","id":19,"geometry":{"type":"Point","coordinates":[-111.93235899306299,40.400715032928666]},"properties":{"created_user":null,"created_date":null,"last_edited_user":"Esri_Anonymous","last_edited_date":1755099764000,"OBJECTID":19,"TYPE":"Slide","HAS_SLIDE":"1","AGERANGE":"2-12","INSTALLDATE":null,"GlobalID":"{B3076529-4114-48FF-92CF-BC596310AACA}","MANUFACT":"Game Time, Great Western","PARKID":15,"FACILITYID":"5335346","LASTINSPECDATE":1730527186000}},{"type":"Feature","id":20,"geometry":{"type":"Point","coordinates":[-111.93221046642782,40.400859284786129]},"properties":{"created_user":null,"created_date":null,"last_edited_user":"Esri_Anonymous","last_edited_date":1754595159000,"OBJECTID":20,"TYPE":"Zip line","HAS_SLIDE":null,"AGERANGE":"5-12","INSTALLDATE":null,"GlobalID":"{F9D42E5C-2BDB-4746-9F6F-4B20CE8BE855}","MANUFACT":"Playworld, Big T Rec","PARKID":15,"FACILITYID":"5335347","LASTINSPECDATE":1750269600000}},{"type":"Feature","id":21,"geometry":{"type":"Point","coordinates":[-111.91220506519856,40.375742906563296]},"properties":{"created_user":null,"created_date":null,"last_edited_user":"Esri_Anonymous","last_edited_date":1754401892000,"OBJECTID":21,"TYPE":"Rope/rock wall with slide","HAS_SLIDE":"1","AGERANGE":"5-12","INSTALLDATE":null,"GlobalID":"{7D3BC678-CDCA-4461-B107-2D88B19616EA}","MANUFACT":"Taft, big t Rec. Playworld","PARKID":16,"FACILITYID":"5335348","LASTINSPECDATE":1730236232000}},{"type":"Feature","id":22,"geometry":{"type":"Point","coordinates":[-111.91219389486993,40.375641743037534]},"properties":{"created_user":null,"created_date":null,"last_edited_user":"Esri_Anonymous","last_edited_date":1754401893000,"OBJECTID":22,"TYPE":"Composition Structure","HAS_SLIDE":"2","AGERANGE":"5-12","INSTALLDATE":null,"GlobalID":"{C49DEC8E-4F24-41EE-A84F-6266DB3E6BF9}","MANUFACT":"Taft, big t Rec. Playworld","PARKID":16,"FACILITYID":"5335349","LASTINSPECDATE":1730236215000}},{"type":"Feature","id":23,"geometry":{"type":"Point","coordinates":[-111.86293177320334,40.362626365791421]},"properties":{"created_user":null,"created_date":null,"last_edited_user":"Esri_Anonymous","last_edited_date":1754402600000,"OBJECTID":23,"TYPE":"Composition structure","HAS_SLIDE":"2","AGERANGE":"5-12","INSTALLDATE":1490076000000,"GlobalID":"{A7274C76-9168-4F39-B29E-8CDE1D444426}","MANUFACT":"Landscape Structures, Sontag","PARKID":13,"FACILITYID":"5335350","LASTINSPECDATE":1730231816000}},{"type":"Feature","id":24,"geometry":{"type":"Point","coordinates":[-111.9269031284926,40.370007004157564]},"properties":{"created_user":null,"created_date":null,"last_edited_user":"Esri_Anonymous","last_edited_date":1754402006000,"OBJECTID":24,"TYPE":"4 way bouncer","HAS_SLIDE":null,"AGERANGE":"2-5","INSTALLDATE":1315720800000,"GlobalID":"{7CB93CCD-8100-4351-96DA-A178C77D7C28}","MANUFACT":"Kompan (Playspace Des)","PARKID":53,"FACILITYID":"5335351","LASTINSPECDATE":1730322596000}},{"type":"Feature","id":25,"geometry":{"type":"Point","coordinates":[-111.92691385709726,40.370067064560338]},"properties":{"created_user":null,"created_date":null,"last_edited_user":"Esri_Anonymous","last_edited_date":1754402006000,"OBJECTID":25,"TYPE":"Sit spinner","HAS_SLIDE":null,"AGERANGE":"2-5","INSTALLDATE":1315720800000,"GlobalID":"{D23EEF1C-702B-4D16-8703-36543E67176F}","MANUFACT":"Kompan (Playspace Des)","PARKID":53,"FACILITYID":"5335352","LASTINSPECDATE":1730322646000}},{"type":"Feature","id":26,"geometry":{"type":"Point","coordinates":[-111.92684505162637,40.370023810161868]},"properties":{"created_user":null,"created_date":null,"last_edited_user":"Esri_Anonymous","last_edited_date":1754402007000,"OBJECTID":26,"TYPE":"Kiddie house","HAS_SLIDE":null,"AGERANGE":"2-5","INSTALLDATE":1315720800000,"GlobalID":"{09EFFEA7-B152-4D51-A2FA-CBA4A4760F2F}","MANUFACT":"Kompan (Playspace Des)","PARKID":53,"FACILITYID":"5335353","LASTINSPECDATE":1730322625000}},{"type":"Feature","id":27,"geometry":{"type":"Point","coordinates":[-111.92666701023494,40.370050594209346]},"properties":{"created_user":null,"created_date":null,"last_edited_user":"Esri_Anonymous","last_edited_date":1754402008000,"OBJECTID":27,"TYPE":"Galaxy swings","HAS_SLIDE":null,"AGERANGE":"2-12","INSTALLDATE":1315720800000,"GlobalID":"{5C0A4F4F-A2A9-4073-9B67-6B77B670067B}","MANUFACT":"Kompan (Playspace Des) 09/11/2011","PARKID":53,"FACILITYID":"5335354","LASTINSPECDATE":1730322855000}},{"type":"Feature","id":28,"geometry":{"type":"Point","coordinates":[-111.92638864724869,40.370025574248082]},"properties":{"created_user":null,"created_date":null,"last_edited_user":"Esri_Anonymous","last_edited_date":1754401999000,"OBJECTID":28,"TYPE":"Rocky toy","HAS_SLIDE":null,"AGERANGE":"5-12","INSTALLDATE":1315720800000,"GlobalID":"{CE5EED71-8598-4573-8A3C-A42A1EBB75D2}","MANUFACT":"Kompan (Playspace Des)","PARKID":53,"FACILITYID":"5335355","LASTINSPECDATE":1730323160000}},{"type":"Feature","id":29,"geometry":{"type":"Point","coordinates":[-111.92634615166449,40.369838238993005]},"properties":{"created_user":null,"created_date":null,"last_edited_user":"Esri_Anonymous","last_edited_date":1754401999000,"OBJECTID":29,"TYPE":"Swings 2.2","HAS_SLIDE":null,"AGERANGE":"5-12","INSTALLDATE":1315720800000,"GlobalID":"{5CACD802-55D2-4157-945E-C3C20ADBB9BF}","MANUFACT":"Kompan  (Playspace Des)","PARKID":53,"FACILITYID":"5335356","LASTINSPECDATE":1730323231000}},{"type":"Feature","id":30,"geometry":{"type":"Point","coordinates":[-111.9264423756746,40.369792473248815]},"properties":{"created_user":null,"created_date":null,"last_edited_user":"Esri_Anonymous","last_edited_date":1754402003000,"OBJECTID":30,"TYPE":"Octo climber","HAS_SLIDE":null,"AGERANGE":"5-12","INSTALLDATE":1315720800000,"GlobalID":"{6D2030DE-AE89-41A4-9057-4E7B5EF91B2C}","MANUFACT":"Kompan (Playspace Des)","PARKID":53,"FACILITYID":"5335357","LASTINSPECDATE":1730323332000}},{"type":"Feature","id":31,"geometry":{"type":"Point","coordinates":[-111.92683808593038,40.37005822683119]},"properties":{"created_user":null,"created_date":null,"last_edited_user":"Esri_Anonymous","last_edited_date":1754402007000,"OBJECTID":31,"TYPE":"Ambulance bouncer","HAS_SLIDE":null,"AGERANGE":"2-5","INSTALLDATE":1315720800000,"GlobalID":"{C7E59420-E88B-4F20-85A8-4DB2D6B23001}","MANUFACT":"Kompan (Playspace Des)","PARKID":53,"FACILITYID":"5335358","LASTINSPECDATE":1730322669000}},{"type":"Feature","id":32,"geometry":{"type":"Point","coordinates":[-111.92677681434263,40.370062750037995]},"properties":{"created_user":null,"created_date":null,"last_edited_user":"Esri_Anonymous","last_edited_date":1754402008000,"OBJECTID":32,"TYPE":"Table top spinner","HAS_SLIDE":null,"AGERANGE":"2-5","INSTALLDATE":1315720800000,"GlobalID":"{4D79F108-CE0C-4940-92CE-1B51397C5FF9}","MANUFACT":"Kompan (Playspace Des)","PARKID":53,"FACILITYID":"5335359","LASTINSPECDATE":1730322699000}},{"type":"Feature","id":33,"geometry":{"type":"Point","coordinates":[-111.92677579533374,40.370003784472054]},"properties":{"created_user":null,"created_date":null,"last_edited_user":"Esri_Anonymous","last_edited_date":1754402008000,"OBJECTID":33,"TYPE":"Fire composite structure","HAS_SLIDE":"1","AGERANGE":"2-5","INSTALLDATE":1315720800000,"GlobalID":"{E77D0522-130C-4143-9FFA-6CC923CB870B}","MANUFACT":"Kompan (Playspace Des)","PARKID":53,"FACILITYID":"5335360","LASTINSPECDATE":1730322817000}},{"type":"Feature","id":34,"geometry":{"type":"Point","coordinates":[-111.92659400383988,40.370062329104968]},"properties":{"created_user":null,"created_date":null,"last_edited_user":"Esri_Anonymous","last_edited_date":1754402005000,"OBJECTID":34,"TYPE":"Merry go round","HAS_SLIDE":null,"AGERANGE":"5-12","INSTALLDATE":1315720800000,"GlobalID":"{2ECD7A0C-BE0E-4F98-A6D0-55AA127C99FB}","MANUFACT":"Kompan (Playspace Des)","PARKID":53,"FACILITYID":"5335361","LASTINSPECDATE":1730322883000}},{"type":"Feature","id":35,"geometry":{"type":"Point","coordinates":[-111.92661512706701,40.369989622091644]},"properties":{"created_user":null,"created_date":null,"last_edited_user":"Esri_Anonymous","last_edited_date":1754402004000,"OBJECTID":35,"TYPE":"Orange spica spinner","HAS_SLIDE":null,"AGERANGE":"5-12","INSTALLDATE":1315720800000,"GlobalID":"{D737FCD1-3FD3-4A08-892B-8CD74CB1C295}","MANUFACT":"Kompan (Playspace Des)","PARKID":53,"FACILITYID":"5335362","LASTINSPECDATE":1730322959000}},{"type":"Feature","id":36,"geometry":{"type":"Point","coordinates":[-111.92666164585501,40.369988154577072]},"properties":{"created_user":null,"created_date":null,"last_edited_user":"Esri_Anonymous","last_edited_date":1754402003000,"OBJECTID":36,"TYPE":"Yellow spica spiner","HAS_SLIDE":null,"AGERANGE":"5-12","INSTALLDATE":1315720800000,"GlobalID":"{D5F5C68E-7CBC-4044-928F-62FA7A4CCBD2}","MANUFACT":"Kompan (Playspace Des)","PARKID":53,"FACILITYID":"5335363","LASTINSPECDATE":1730322916000}},{"type":"Feature","id":37,"geometry":{"type":"Point","coordinates":[-111.92656232075318,40.370005876458691]},"properties":{"created_user":null,"created_date":null,"last_edited_user":"Esri_Anonymous","last_edited_date":1754402004000,"OBJECTID":37,"TYPE":"Galaxy spinners","HAS_SLIDE":null,"AGERANGE":"5-12","INSTALLDATE":1315720800000,"GlobalID":"{00779279-02D9-40A5-ADE6-4CAAA58AE4CA}","MANUFACT":"Kompan (Playspace Des)","PARKID":53,"FACILITYID":"5335364","LASTINSPECDATE":1730322980000}},{"type":"Feature","id":38,"geometry":{"type":"Point","coordinates":[-111.92650645901374,40.370041243288654]},"properties":{"created_user":null,"created_date":null,"last_edited_user":"Esri_Anonymous","last_edited_date":1754401893000,"OBJECTID":38,"TYPE":"Galaxy composite structure","HAS_SLIDE":"1","AGERANGE":"5-12","INSTALLDATE":1315720800000,"GlobalID":"{9ECC8E56-0912-4E24-AC8F-B6BCD1E8E297}","MANUFACT":"Kompan (Playspace Des)","PARKID":53,"FACILITYID":"5335365","LASTINSPECDATE":1730323092000}},{"type":"Feature","id":39,"geometry":{"type":"Point","coordinates":[-111.92649249915964,40.370016228023204]},"properties":{"created_user":null,"created_date":null,"last_edited_user":"Esri_Anonymous","last_edited_date":1754401998000,"OBJECTID":39,"TYPE":"Green spica spinner","HAS_SLIDE":null,"AGERANGE":"5-12","INSTALLDATE":1315720800000,"GlobalID":"{4663F1D1-1FB9-423B-9143-8557E47C3A70}","MANUFACT":"Kompan (Playspace Des)","PARKID":53,"FACILITYID":"5335366","LASTINSPECDATE":1730323116000}},{"type":"Feature","id":40,"geometry":{"type":"Point","coordinates":[-111.92647028779038,40.369930648836714]},"properties":{"created_user":null,"created_date":null,"last_edited_user":"Esri_Anonymous","last_edited_date":1754402005000,"OBJECTID":40,"TYPE":"Pyramid","HAS_SLIDE":null,"AGERANGE":"5-12","INSTALLDATE":1315720800000,"GlobalID":"{8A33B84A-9947-430D-95DA-16F614038FD3}","MANUFACT":"Kompan (Playspace Des)","PARKID":53,"FACILITYID":"5335367","LASTINSPECDATE":1730323274000}},{"type":"Feature","id":41,"geometry":{"type":"Point","coordinates":[-111.9262733960462,40.370000554478906]},"properties":{"created_user":null,"created_date":null,"last_edited_user":"Esri_Anonymous","last_edited_date":1754402000000,"OBJECTID":41,"TYPE":"Rocky, and icon structure","HAS_SLIDE":null,"AGERANGE":"5-12","INSTALLDATE":1315720800000,"GlobalID":"{6826FD6E-D4A6-40EC-A4B2-7F586A9DF454}","MANUFACT":"Kompan (Playspace Des)","PARKID":53,"FACILITYID":"5335368","LASTINSPECDATE":1730323182000}},{"type":"Feature","id":42,"geometry":{"type":"Point","coordinates":[-111.92623123518274,40.369903365965975]},"properties":{"created_user":null,"created_date":null,"last_edited_user":"Esri_Anonymous","last_edited_date":1754402002000,"OBJECTID":42,"TYPE":"VIP Swing","HAS_SLIDE":null,"AGERANGE":"5-12","INSTALLDATE":1315720800000,"GlobalID":"{6491DDC1-E659-4AD2-9691-B601F0EC87CD}","MANUFACT":"Kompan (Playspace Des)","PARKID":53,"FACILITYID":"5335369","LASTINSPECDATE":1730323208000}},{"type":"Feature","id":44,"geometry":{"type":"Point","coordinates":[-111.93647888540239,40.375789432394342]},"properties":{"created_user":null,"created_date":null,"last_edited_user":"Esri_Anonymous","last_edited_date":1754401990000,"OBJECTID":44,"TYPE":"Swings (4 kid, 2 baby)","HAS_SLIDE":null,"AGERANGE":"2-12","INSTALLDATE":null,"GlobalID":"{AA726CE0-B914-41E8-B0CA-34E6F218A1F4}","MANUFACT":"Miracle (Garret and Co)","PARKID":18,"FACILITYID":"5335371","LASTINSPECDATE":1730326820000}},{"type":"Feature","id":45,"geometry":{"type":"Point","coordinates":[-111.9363276564923,40.375802047040395]},"properties":{"created_user":null,"created_date":null,"last_edited_user":"Esri_Anonymous","last_edited_date":1754401990000,"OBJECTID":45,"TYPE":"Composite structure","HAS_SLIDE":"2","AGERANGE":"2-12","INSTALLDATE":null,"GlobalID":"{08C3DAAC-433A-4074-AE73-059527454250}","MANUFACT":"Miracle (Garret and Co)","PARKID":18,"FACILITYID":"5335372","LASTINSPECDATE":1730326854000}},{"type":"Feature","id":46,"geometry":{"type":"Point","coordinates":[-111.89909934965799,40.359043395075147]},"properties":{"created_user":null,"created_date":null,"last_edited_user":"Esri_Anonymous","last_edited_date":1755100155000,"OBJECTID":46,"TYPE":"Composite structure","HAS_SLIDE":"1","AGERANGE":"2-12","INSTALLDATE":null,"GlobalID":"{A69AA02E-E5CE-4F45-BDD8-6300F000B5EE}","MANUFACT":"Miracle, Garret and Co.","PARKID":84,"FACILITYID":"5335373","LASTINSPECDATE":1738688887000}},{"type":"Feature","id":47,"geometry":{"type":"Point","coordinates":[-111.92401966987707,40.338094630265211]},"properties":{"created_user":null,"created_date":null,"last_edited_user":"Esri_Anonymous","last_edited_date":1754402011000,"OBJECTID":47,"TYPE":"5-12 comp structure","HAS_SLIDE":"1","AGERANGE":"5-12","INSTALLDATE":null,"GlobalID":"{BABDF176-CCD2-46E4-8060-D4AA0D9C244D}","MANUFACT":"Taft, big t Rec. Playworld","PARKID":11,"FACILITYID":"5335374","LASTINSPECDATE":1730386928000}},{"type":"Feature","id":48,"geometry":{"type":"Point","coordinates":[-111.88420096262003,40.295229794518221]},"properties":{"created_user":null,"created_date":null,"last_edited_user":"Esri_Anonymous","last_edited_date":1754403401000,"OBJECTID":48,"TYPE":"Comp structure","HAS_SLIDE":null,"AGERANGE":"2-5","INSTALLDATE":null,"GlobalID":"{44C03B9F-70F2-4456-8992-9585B426666E}","MANUFACT":"Lewis, great western. Game time","PARKID":5,"FACILITYID":"5335375","LASTINSPECDATE":1754320568000}},{"type":"Feature","id":49,"geometry":{"type":"Point","coordinates":[-111.88126503805171,40.287637239903972]},"properties":{"created_user":null,"created_date":null,"last_edited_user":"Esri_Anonymous","last_edited_date":1755100587000,"OBJECTID":49,"TYPE":"Comp structure","HAS_SLIDE":"2","AGERANGE":"2-12","INSTALLDATE":null,"GlobalID":"{EE2FAAD6-35E6-45E0-B179-717A9D4FB60B}","MANUFACT":"Lewis, great western. Gametime","PARKID":4,"FACILITYID":"5335376","LASTINSPECDATE":1743542310000}},{"type":"Feature","id":50,"geometry":{"type":"Point","coordinates":[-111.92411111623294,40.338136288745872]},"properties":{"created_user":null,"created_date":null,"last_edited_user":"Esri_Anonymous","last_edited_date":1754402012000,"OBJECTID":50,"TYPE":"Net composite with spinner","HAS_SLIDE":null,"AGERANGE":"5-12","INSTALLDATE":null,"GlobalID":"{7A1F8BD9-5008-44D5-B6BD-77286A98EDB6}","MANUFACT":"Taft, big t Rec. Playworld","PARKID":11,"FACILITYID":"5335377","LASTINSPECDATE":1730386900000}},{"type":"Feature","id":51,"geometry":{"type":"Point","coordinates":[-111.92403551206276,40.338141611097683]},"properties":{"created_user":null,"created_date":null,"last_edited_user":"Esri_Anonymous","last_edited_date":1754402011000,"OBJECTID":51,"TYPE":"Verticals spinner","HAS_SLIDE":null,"AGERANGE":"5-12","INSTALLDATE":null,"GlobalID":"{6E247A9B-61D2-474C-9ACF-69D12BBE3D3A}","MANUFACT":"Taft, big t Rec. Playworld","PARKID":11,"FACILITYID":"5335378","LASTINSPECDATE":1730386918000}},{"type":"Feature","id":52,"geometry":{"type":"Point","coordinates":[-111.91003429684962,40.319927483760019]},"properties":{"created_user":null,"created_date":null,"last_edited_user":"Esri_Anonymous","last_edited_date":1754401996000,"OBJECTID":52,"TYPE":"Sit spinner","HAS_SLIDE":null,"AGERANGE":"5-12","INSTALLDATE":null,"GlobalID":"{EF66D2BF-28FF-4725-9F51-FA09A982C02C}","MANUFACT":"Lewis, great western. Game time","PARKID":9,"FACILITYID":"5335379","LASTINSPECDATE":1730388010000}},{"type":"Feature","id":53,"geometry":{"type":"Point","coordinates":[-111.90996833192268,40.31987207916707]},"properties":{"created_user":null,"created_date":null,"last_edited_user":"Esri_Anonymous","last_edited_date":1754401995000,"OBJECTID":53,"TYPE":"Angling spinner","HAS_SLIDE":null,"AGERANGE":"5-12","INSTALLDATE":null,"GlobalID":"{6F4D23AC-61DE-43B3-8479-EF50B5897381}","MANUFACT":"Lewis, great western. Game time","PARKID":9,"FACILITYID":"5335380","LASTINSPECDATE":1730387925000}},{"type":"Feature","id":54,"geometry":{"type":"Point","coordinates":[-111.91009137757122,40.319912848920438]},"properties":{"created_user":null,"created_date":null,"last_edited_user":"Esri_Anonymous","last_edited_date":1754401996000,"OBJECTID":54,"TYPE":"Swings","HAS_SLIDE":null,"AGERANGE":"2-12","INSTALLDATE":null,"GlobalID":"{73E25F3A-6767-45CD-972B-92024710EE4F}","MANUFACT":"Lewis, great western. Game time","PARKID":9,"FACILITYID":"5335381","LASTINSPECDATE":1730387995000}},{"type":"Feature","id":56,"geometry":{"type":"Point","coordinates":[-111.91030656444499,40.319939953890191]},"properties":{"created_user":null,"created_date":null,"last_edited_user":"Esri_Anonymous","last_edited_date":1754401997000,"OBJECTID":56,"TYPE":"Composite","HAS_SLIDE":"1","AGERANGE":"2-12","INSTALLDATE":null,"GlobalID":"{BC4305E3-E713-43C3-B5EA-89CE03D53702}","MANUFACT":"Lewis, great western. Game time","PARKID":9,"FACILITYID":"5335383","LASTINSPECDATE":1730388059000}},{"type":"Feature","id":57,"geometry":{"type":"Point","coordinates":[-111.88432457008285,40.295259761229694]},"properties":{"created_user":null,"created_date":null,"last_edited_user":"Esri_Anonymous","last_edited_date":1754402013000,"OBJECTID":57,"TYPE":"Swings","HAS_SLIDE":null,"AGERANGE":"2-12","INSTALLDATE":null,"GlobalID":"{8BDB4924-D9C1-4107-9B39-4D4F4691D173}","MANUFACT":"Lewis, great western. Game time","PARKID":5,"FACILITYID":"5335384","LASTINSPECDATE":1730388656000}},{"type":"Feature","id":58,"geometry":{"type":"Point","coordinates":[-111.88290870620611,40.290011999504884]},"properties":{"created_user":null,"created_date":null,"last_edited_user":"Esri_Anonymous","last_edited_date":1754402014000,"OBJECTID":58,"TYPE":"Net structure","HAS_SLIDE":null,"AGERANGE":"2-12","INSTALLDATE":null,"GlobalID":"{E4DE7A1C-8171-4A7C-A49B-2E766E0B2F72}","MANUFACT":"Lewis, great western. Game time","PARKID":3,"FACILITYID":"5335385","LASTINSPECDATE":1730389318000}},{"type":"Feature","id":59,"geometry":{"type":"Point","coordinates":[-111.88298627639293,40.290073394387342]},"properties":{"created_user":null,"created_date":null,"last_edited_user":"Esri_Anonymous","last_edited_date":1754402014000,"OBJECTID":59,"TYPE":"Net structure with rock wall","HAS_SLIDE":null,"AGERANGE":"2-12","INSTALLDATE":null,"GlobalID":"{187FA073-2934-47C4-935B-C3A5A905BACE}","MANUFACT":"Lewis, great western. Game time","PARKID":3,"FACILITYID":"5335386","LASTINSPECDATE":1730389299000}},{"type":"Feature","id":60,"geometry":{"type":"Point","coordinates":[-111.88289349331423,40.290069914065874]},"properties":{"created_user":null,"created_date":null,"last_edited_user":"Esri_Anonymous","last_edited_date":1754402013000,"OBJECTID":60,"TYPE":"Sit spinners ","HAS_SLIDE":null,"AGERANGE":"5-12","INSTALLDATE":null,"GlobalID":"{24121E7B-BF32-44DE-A227-581A0A1B483D}","MANUFACT":"Lewis, great western. Game time","PARKID":3,"FACILITYID":"5335387","LASTINSPECDATE":1730389330000}},{"type":"Feature","id":61,"geometry":{"type":"Point","coordinates":[-111.88298376001904,40.290015437075766]},"properties":{"created_user":null,"created_date":null,"last_edited_user":"Esri_Anonymous","last_edited_date":1754402014000,"OBJECTID":61,"TYPE":"Comp structure with spinner","HAS_SLIDE":null,"AGERANGE":"2-12","INSTALLDATE":null,"GlobalID":"{E24B46B5-6E88-4B44-B7B3-01C67CDBA830}","MANUFACT":"Lewis, great western. Game time","PARKID":3,"FACILITYID":"5335388","LASTINSPECDATE":1730389288000}},{"type":"Feature","id":62,"geometry":{"type":"Point","coordinates":[-111.90602396051577,40.356458405225382]},"properties":{"created_user":null,"created_date":null,"last_edited_user":"Esri_Anonymous","last_edited_date":1755208782000,"OBJECTID":62,"TYPE":"2 - 5 post platform slides and climber","HAS_SLIDE":null,"AGERANGE":"2-5","INSTALLDATE":1533657983000,"GlobalID":"{E74438A8-564C-4F6B-9488-7F5D6C1F020A}","MANUFACT":"play world","PARKID":null,"FACILITYID":"5335392","LASTINSPECDATE":1731597967000}},{"type":"Feature","id":63,"geometry":{"type":"Point","coordinates":[-111.9059093023422,40.356562956414685]},"properties":{"created_user":null,"created_date":null,"last_edited_user":"Esri_Anonymous","last_edited_date":1754401913000,"OBJECTID":63,"TYPE":"ball and gloveclimber slide","HAS_SLIDE":"tube ","AGERANGE":"5-12","INSTALLDATE":1533658370000,"GlobalID":"{017C39BB-3B1D-4308-A90D-2FEDB2A32DA4}","MANUFACT":"play world","PARKID":null,"FACILITYID":"5335393","LASTINSPECDATE":1730233975000}},{"type":"Feature","id":64,"geometry":{"type":"Point","coordinates":[-111.90580658200965,40.356565778905704]},"properties":{"created_user":null,"created_date":null,"last_edited_user":"Esri_Anonymous","last_edited_date":1754402599000,"OBJECTID":64,"TYPE":"post n plat form","HAS_SLIDE":"open, twist","AGERANGE":"5-12","INSTALLDATE":1533658588000,"GlobalID":"{5CF77873-8D95-473E-BAB3-893A80221B35}","MANUFACT":"play world","PARKID":null,"FACILITYID":"5335394","LASTINSPECDATE":1730233849000}},{"type":"Feature","id":65,"geometry":{"type":"Point","coordinates":[-111.90575504033897,40.356646668420723]},"properties":{"created_user":null,"created_date":null,"last_edited_user":"Esri_Anonymous","last_edited_date":1754402599000,"OBJECTID":65,"TYPE":"post n platform","HAS_SLIDE":"open","AGERANGE":"5-12","INSTALLDATE":1533658744000,"GlobalID":"{9595F3B5-EBD7-4617-B4C3-8AF15831BC6A}","MANUFACT":null,"PARKID":null,"FACILITYID":"5335395","LASTINSPECDATE":1730233799000}},{"type":"Feature","id":66,"geometry":{"type":"Point","coordinates":[-111.90580677818917,40.356618907141019]},"properties":{"created_user":null,"created_date":null,"last_edited_user":"Esri_Anonymous","last_edited_date":1754404904000,"OBJECTID":66,"TYPE":"net climber","HAS_SLIDE":null,"AGERANGE":"5-12","INSTALLDATE":1533658923000,"GlobalID":"{6058B3E1-89A5-4127-8CF8-6D979DA24B4C}","MANUFACT":"play world","PARKID":null,"FACILITYID":"5335396","LASTINSPECDATE":1754318833000}},{"type":"Feature","id":67,"geometry":{"type":"Point","coordinates":[-111.90586797841918,40.356643459261484]},"properties":{"created_user":null,"created_date":null,"last_edited_user":"Esri_Anonymous","last_edited_date":1763426741000,"OBJECTID":67,"TYPE":"post n platform climbers","HAS_SLIDE":null,"AGERANGE":"5-12","INSTALLDATE":1533659035000,"GlobalID":"{985CCF9E-67CF-4638-ACDF-AC5186B535A0}","MANUFACT":"play world","PARKID":null,"FACILITYID":"5335397","LASTINSPECDATE":1763406000000}},{"type":"Feature","id":68,"geometry":{"type":"Point","coordinates":[-111.90584235992819,40.356669490764553]},"properties":{"created_user":null,"created_date":null,"last_edited_user":"Esri_Anonymous","last_edited_date":1754403401000,"OBJECTID":68,"TYPE":"rocks blocks climber","HAS_SLIDE":null,"AGERANGE":"5-12","INSTALLDATE":1533659093000,"GlobalID":"{C9C50449-D346-4093-90D8-B2FE0AA55FEA}","MANUFACT":"playworld","PARKID":null,"FACILITYID":"5335398","LASTINSPECDATE":1754318624000}},{"type":"Feature","id":69,"geometry":{"type":"Point","coordinates":[-111.90575134200049,40.356712295568435]},"properties":{"created_user":null,"created_date":null,"last_edited_user":"Esri_Anonymous","last_edited_date":1754401890000,"OBJECTID":69,"TYPE":"whirl around merry go round","HAS_SLIDE":null,"AGERANGE":"5-12","INSTALLDATE":1533659191000,"GlobalID":"{47FDAD40-F701-4EFE-9309-DD05C4A4F5E9}","MANUFACT":null,"PARKID":null,"FACILITYID":"5335399","LASTINSPECDATE":1730234597000}},{"type":"Feature","id":70,"geometry":{"type":"Point","coordinates":[-111.9058560496693,40.356755102822362]},"properties":{"created_user":null,"created_date":null,"last_edited_user":"Esri_Anonymous","last_edited_date":1754402600000,"OBJECTID":70,"TYPE":"swing set 3 bay single post ","HAS_SLIDE":null,"AGERANGE":"5-12","INSTALLDATE":1533659274000,"GlobalID":"{67F4B2FD-DBEB-42DC-8C6C-5632EB48A413}","MANUFACT":null,"PARKID":null,"FACILITYID":"5335400","LASTINSPECDATE":1730233182000}},{"type":"Feature","id":71,"geometry":{"type":"Point","coordinates":[-111.9059381346391,40.356694077737373]},"properties":{"created_user":null,"created_date":null,"last_edited_user":"Esri_Anonymous","last_edited_date":1763595455000,"OBJECTID":71,"TYPE":"spinami spinner","HAS_SLIDE":null,"AGERANGE":"5-12","INSTALLDATE":1533659399000,"GlobalID":"{9967AC38-9FC4-408C-BED3-6379A747B5EE}","MANUFACT":null,"PARKID":null,"FACILITYID":"5335401","LASTINSPECDATE":1763578800000}},{"type":"Feature","id":73,"geometry":{"type":"Point","coordinates":[-111.9058810732239,40.356517030548439]},"properties":{"created_user":null,"created_date":null,"last_edited_user":"Esri_Anonymous","last_edited_date":1754401913000,"OBJECTID":73,"TYPE":"ball climber","HAS_SLIDE":null,"AGERANGE":"5-12","INSTALLDATE":1533659527000,"GlobalID":"{A7DAE009-2910-4ABE-9A2D-4574D12DC2F0}","MANUFACT":null,"PARKID":null,"FACILITYID":"5335403","LASTINSPECDATE":1730234015000}},{"type":"Feature","id":74,"geometry":{"type":"Point","coordinates":[-111.90594424464079,40.356469037444853]},"properties":{"created_user":null,"created_date":null,"last_edited_user":"Esri_Anonymous","last_edited_date":1754401912000,"OBJECTID":74,"TYPE":"rocker squirl","HAS_SLIDE":null,"AGERANGE":null,"INSTALLDATE":1533660605000,"GlobalID":"{DBBA9B81-C72F-4A6F-B05E-333ABE496485}","MANUFACT":"play world","PARKID":null,"FACILITYID":"5335405","LASTINSPECDATE":1730233991000}},{"type":"Feature","id":77,"geometry":{"type":"Point","coordinates":[-111.9059254380082,40.356450628168098]},"properties":{"created_user":null,"created_date":null,"last_edited_user":"Esri_Anonymous","last_edited_date":1755717145000,"OBJECTID":77,"TYPE":"duck spring toy","HAS_SLIDE":null,"AGERANGE":"5-12","INSTALLDATE":1533659880000,"GlobalID":"{03F3DF9F-68C7-43D4-8906-C393118875A5}","MANUFACT":null,"PARKID":null,"FACILITYID":"5335404","LASTINSPECDATE":1752775200000}},{"type":"Feature","id":78,"geometry":{"type":"Point","coordinates":[-111.90595170252107,40.356424763719538]},"properties":{"created_user":null,"created_date":null,"last_edited_user":"Esri_Anonymous","last_edited_date":1747341525000,"OBJECTID":78,"TYPE":null,"HAS_SLIDE":null,"AGERANGE":"2-5","INSTALLDATE":1533621600000,"GlobalID":"{3682D26D-6E71-413B-AE9D-19A4C309CEF3}","MANUFACT":null,"PARKID":null,"FACILITYID":"4134","LASTINSPECDATE":1747341525000}},{"type":"Feature","id":79,"geometry":{"type":"Point","coordinates":[-111.90600241738066,40.356399633032851]},"properties":{"created_user":null,"created_date":null,"last_edited_user":"Esri_Anonymous","last_edited_date":1755208781000,"OBJECTID":79,"TYPE":null,"HAS_SLIDE":null,"AGERANGE":"2-5","INSTALLDATE":1533621600000,"GlobalID":"{6758FBF1-79C6-496E-8BDB-ABE1AACEEB95}","MANUFACT":null,"PARKID":null,"FACILITYID":"4135","LASTINSPECDATE":1732482591000}},{"type":"Feature","id":513,"geometry":{"type":"Point","coordinates":[-111.95543575998373,40.372138140520704]},"properties":{"created_user":"BGIBSON","created_date":1703089159000,"last_edited_user":"Esri_Anonymous","last_edited_date":1763425033000,"OBJECTID":513,"TYPE":"Comp Structure","HAS_SLIDE":"2","AGERANGE":"5-12","INSTALLDATE":1690848000000,"GlobalID":"{2592EC74-886D-4F68-8DE7-986BFEBAA945}","MANUFACT":"Playworld","PARKID":366,"FACILITYID":"4141","LASTINSPECDATE":1763406000000}},{"type":"Feature","id":514,"geometry":{"type":"Point","coordinates":[-111.95539589872736,40.372066998656479]},"properties":{"created_user":"BGIBSON","created_date":1703089159000,"last_edited_user":"Esri_Anonymous","last_edited_date":1754402010000,"OBJECTID":514,"TYPE":"Comp Structure","HAS_SLIDE":"3","AGERANGE":"2-5","INSTALLDATE":1690848000000,"GlobalID":"{FC9BF887-462A-45DD-A849-EC37F97E8695}","MANUFACT":"Playworld","PARKID":366,"FACILITYID":"4142","LASTINSPECDATE":1730399011000}},{"type":"Feature","id":515,"geometry":{"type":"Point","coordinates":[-111.9553493247105,40.371973791478325]},"properties":{"created_user":"BGIBSON","created_date":1703089159000,"last_edited_user":"Esri_Anonymous","last_edited_date":1768227352000,"OBJECTID":515,"TYPE":"Swings","HAS_SLIDE":"0","AGERANGE":"2-12","INSTALLDATE":1690848000000,"GlobalID":"{75F977CC-16E4-4BE9-9C67-3E5BCB37F40E}","MANUFACT":"Playworld","PARKID":366,"FACILITYID":"4143","LASTINSPECDATE":1766084400000}}]}